,ID,GlobalWate,New_City,Utility_na,GlobalWa_1,Region,Currency,Management,Water_bill,City_Name,State_Prov,Country,Latitude,Longitude
0,236,Aarhus,,Aarhusvand,Denmark,Western Europe,DKK,,3.32,Aarhus,Central Jutland,Denmark,56.15674,10.21076
1,380,Abidjan,,SODECI,Côte d'Ivoire,Sub-Saharan Africa,XOF,PPP,0.45,Abidjan,Abidjan,Côte d'Ivoire,5.30966,-4.01266
2,470,Abu Dhabi (Emirati citizens),,Abu Dhabi Distribution Company,UAE,Middle East & North Africa,AED,Public,0.57,Abu Dhabi (Emirati citizens),Abu Dhabi,UAE,24.46667,54.36667
3,386,Abu Dhabi (Expats),,Abu Dhabi Distribution Company,UAE,Middle East & North Africa,AED,Public,2.13,Abu Dhabi (Expats),Abu Dhabi,UAE,24.46667,54.36667
4,170,Acapulco,,CAPAMA (Comision de Agua Potable y Alcanarillado del Municipio de Acapulco),Mexico,Latin America & Caribbean,MXN,Public,0.58,Acapulco,Guerrero,Mexico,16.84942,-99.90891
5,360,Accra,,Ghana Water Company Limited (GWCL),Ghana,Sub-Saharan Africa,GHS,Public,1.06,Accra,Greater Accra,Ghana,5.55602,-0.1969
6,125,Adana,,ASKI,Turkey,Eastern Europe & Central Asia,TRY,Public,0.7,Adana,Adana,Turkey,37.00167,35.32889
7,23,Addis Ababa,,Addis Ababa Water and Sewerage Authority,Ethiopia,Sub-Saharan Africa,ETB,Public,0.11,Addis Ababa,Addis Ababa,Ethiopia,9.02497,38.74689
8,255,Adelaide,,South Australian Water,Australia,Asia Pacific,AUD,Public,3.06,Adelaide,South Australia,Australia,-34.92866,138.59863
9,329,Albuquerque,,Albuquerque Bernalillo County Water Utility Authority,United States,North America,USD,public,2.07,Albuquerque,New Mexico,United States,35.08449,-106.65114
10,264,Alexandria,,AWCO (water) / ASDCO (wastewater),Egypt,Middle East & North Africa,EGP,Public,0.07,Alexandria,Alexandria,Egypt,31.20176,29.91582
11,1,Algiers,,SEAAL,Algeria,Middle East & North Africa,DZD,Private,0.2,Algiers,Algiers,Algeria,36.73225,3.08746
12,554,Alicante,New,Aguas de Alicante,Spain,Western Europe,EUR,Private,1.78,Alicante,Valencia,Spain,38.34517,-0.48149
13,36,Almaty,,Almaty Sui,Kazakhstan,Eastern Europe & Central Asia,KZT,Public,0.15,Almaty,Almaty,Kazakhstan,43.25667,76.92861
14,520,Alor Setar,,PBAPP (water) / Indah Water (wastewater),Malaysia,Asia Pacific,MYR,Public,0.12,Alor Setar,Kedah,Malaysia,6.12104,100.36014
15,147,Amadora,,SIMAS de Oeiras e Amadora,Portugal,Western Europe,EUR,Public,1.14,Amadora,Lisbon,Portugal,38.75382,-9.23083
16,269,Amman,,Water Authority for the Kingdom of Jordan,Jordan,Middle East & North Africa,JOD,,0.47,Amman,Amman,Jordan,31.95522,35.94503
17,160,Amsterdam,,Waternet,Netherlands,Western Europe,EUR,,2.68,Amsterdam,North Holland,Netherlands,52.37403,4.88969
18,471,Anchorage,,Anchorage Water and Wastewater Utility,United States,North America,USD,,2.93,Anchorage,Alaska,United States,61.21806,-149.90028
19,127,Ankara,,ASKI,Turkey,Eastern Europe & Central Asia,TRY,Public,0.62,Ankara,Ankara,Turkey,39.91987,32.85427
20,131,Antalya,,ASAT,Turkey,Eastern Europe & Central Asia,TRY,Public,0.56,Antalya,Antalya,Turkey,36.90812,30.69556
21,40,Antananarivo,,Jirama: Jiro sy Rano Malagasy,Madagascar,Sub-Saharan Africa,MGA,Private,0.24,Antananarivo,Analamanga,Madagascar,-18.91368,47.53613
22,248,Antwerp,,AWW,Belgium,Western Europe,EUR,,2.03,Antwerp,Flanders,Belgium,51.21989,4.40346
23,493,Apia,,Samoa Water Authority,Samoa,Asia Pacific,WST,,0.79,Apia,Tuamasaga,Samoa,-13.83333,-171.76666
24,76,Ashgabat,,National Ministry of Water,Turkmenistan,Eastern Europe & Central Asia,TMT,Public,0.14,Ashgabat,Ashgabat,Turkmenistan,37.95,58.38333
25,510,Asmara (Middle Income),,Asmara Water Supply and Sewerage Department (AWWSD),Eritrea,Sub-Saharan Africa,ERN,,0.46,Asmara (Middle Income),Maekel,Eritrea,15.33805,38.93184
26,35,Nur-Sultan,,Astana Su Arnasy,Kazakhstan,Eastern Europe & Central Asia,KZT,Public,0.11,Nur-Sultan,Astana Qalasy,Kazakhstan,51.1801,71.44598
27,363,Asunción,,Empresa de Servicios Sanitarios del Paraguay S.A. (ESSAP),Paraguay,Latin America & Caribbean,PYG,Public,0.37,Asunción,Asunción,Paraguay,-25.28646,-57.647
28,213,Athens,,EYDAP S.A. (Athens Water Supply and Sewerage Company),Greece,Western Europe,EUR,,0.79,Athens,Attica,Greece,37.98376,23.72784
29,88,Atlanta,,Atlanta Department of Watershed Management,United States,North America,USD,public,1.77,Atlanta,Georgia,United States,33.749,-84.38798
30,158,Auckland,,Watercare,New Zealand,Asia Pacific,NZD,,1.03,Auckland,Auckland,New Zealand,-36.84853,174.76349
31,296,Aurangabad,,Aurangabad Municipal Corporation,India,South Asia,INR,Public,0.21,Aurangabad,Maharashtra,India,19.87757,75.34226
32,414,Austin,,Austin Water,United States,North America,USD,Public,1.79,Austin,Texas,United States,30.26715,-97.74306
33,482,Baghdad,,Amanat Baghdad,Iraq,Middle East & North Africa,IQD,Public,0.18,Baghdad,Baghdad,Iraq,33.34058,44.40088
34,5,Baku,,Azersu,Azerbaijan,Eastern Europe & Central Asia,AZN,Public,0.21,Baku,Baki,Azerbaijan,40.37767,49.89201
35,107,Baltimore,,Bureau of Water and Wastewater Baltimore,United States,North America,USD,Public,2.02,Baltimore,Maryland,United States,39.29038,-76.61219
36,41,Bamako,,Société Malienne de Gestion de l'Eau Potable (SOMAGEP),Mali,Sub-Saharan Africa,XOF,Private,0.41,Bamako,Bamako,Mali,12.65,-8.0
37,399,Bandar Seri Begawan,,Jabatan Perkhidmatan Air,Brunei,Asia Pacific,BND,Public,0.08,Bandar Seri Begawan,Brunei and Muara,Brunei,4.89035,114.94006
38,297,Bandung,,PDAM Tirtawening Bandung,Indonesia,Asia Pacific,IDR,Public,0.31,Bandung,West Java,Indonesia,-6.92222,107.60694
39,26,Bangalore,,Bangalore Water Supply and Sewerage Board,India,South Asia,INR,Public,0.18,Bangalore,Karnataka,India,12.97194,77.59369
40,298,Bangkok,,Metropolitan Waterworks Authority,Thailand,Asia Pacific,THB,Public,0.35,Bangkok,Bangkok,Thailand,13.75398,100.50144
41,506,Bangui,,Société de Distribution d’Eau en Centrafrique (SODECA),Central African Republic,Sub-Saharan Africa,XOF,,0.47,Bangui,Bangui,Central African Republic,4.36122,18.55496
42,501,Banjul,,National Water and Electricity Company NAWEC,Gambia,Sub-Saharan Africa,GMD,,0.14,Banjul,Banjul,Gambia,13.45274,-16.57803
43,139,Barcelona,,AGBAR,Spain,Western Europe,EUR,Private,2.66,Barcelona,Catalonia,Spain,41.38879,2.15899
44,547,Barnaul,New,Barnaul Vodokanal,Russia,Eastern Europe & Central Asia,RUB,Public,0.39,Barnaul,Altai Krai,Russia,53.36056,83.76361
45,133,Basel,,IWB,Switzerland,Western Europe,CHF,,2.54,Basel,Basel-City,Switzerland,47.55839,7.57327
46,483,Basrah,,Basra Water Directorate,Iraq,Middle East & North Africa,IQD,Public,0.18,Basrah,Basra,Iraq,30.50852,47.7804
47,497,Basseterre,,St. Kitts Water Services Department,Saint Kitts and Nevis,Latin America & Caribbean,XCD,,0.64,Basseterre,Saint George Basseterre,Saint Kitts and Nevis,17.2955,-62.72499
48,13,Beijing,,Beijing Water Supply Company,China,Asia Pacific,CNY,Public,0.53,Beijing,Beijing,China,39.9075,116.39723
49,371,Beirut,,The Establishment of the Water of Beirut and Mount Lebanon,Lebanon,Middle East & North Africa,LBP,Public,0.18,Beirut,Beyrouth,Lebanon,33.89332,35.50157
50,122,Belfast,,Northern Ireland Water,United Kingdom,Western Europe,GBP,Public,0.0,Belfast,Northern Ireland,United Kingdom,54.59682,-5.92541
51,70,Belgrade,,Beogradski vodovod i kanalizacija,Serbia,Eastern Europe & Central Asia,RSD,Public,0.54,Belgrade,Central Serbia,Serbia,44.80401,20.46513
52,402,Belize City,,Belize Water Services,Belize,Latin America & Caribbean,BZD,Public,2.28,Belize City,Belize,Belize,17.49952,-88.19756
53,435,Belmopan,,Belize Water Services,Belize,Latin America & Caribbean,BZD,Public,2.28,Belmopan,Cayo,Belize,17.25,-88.76667
54,284,Belo Horizonte,,COPASA,Brazil,Latin America & Caribbean,BRL,PPP,1.31,Belo Horizonte,Minas Gerais,Brazil,-19.92083,-43.93778
55,217,Berlin,,Berliner Wasserbetriebe,Germany,Western Europe,EUR,,2.19,Berlin,Berlin,Germany,52.52437,13.41053
56,299,Bhubaneswar,,Bhubneshwar Municipal Corporation,India,South Asia,INR,Public,0.04,Bhubaneswar,Odisha,India,20.27241,85.83385
57,142,Bilbao,,Consorcio de Aguas Bilbao Bizkaia,Spain,Western Europe,EUR,Public,0.96,Bilbao,Basque Country,Spain,43.26271,-2.92528
58,330,Billings,,City of Billings Public Works,United States,North America,USD,public,0.89,Billings,Montana,United States,45.78329,-108.50069
59,120,Birmingham,,Severn Trent,United Kingdom,Western Europe,GBP,Private,2.04,Birmingham,England,United Kingdom,52.48142,-1.89983
60,331,"Birmingham, AL",,Birmingham Water Works Board (water) / Jefferson County Environmental Services (wastewater),United States,North America,USD,public,2.65,"Birmingham, AL",Alabama,United States,33.52066,-86.80249
61,377,Bishkek,,PEU Bishkekvodokanal,Kyrgyz Republic,Eastern Europe & Central Asia,KGS,Public,0.09,Bishkek,Bishkek,Kyrgyz Republic,42.87,74.59
62,508,Bissau,,Empresa de Eletricidade e Águas da Guiné-Bissau,Guinea-Bissau,Sub-Saharan Africa,XOF,,0.23,Bissau,Bissau,Guinea-Bissau,11.86357,-15.59767
63,285,Bogotá,,Empresa de Acueducto y Alcantarillado de Bogota E.S.P.,Colombia,Latin America & Caribbean,COP,,0.8,Bogotá,Bogota D.C.,Colombia,4.60971,-74.08175
64,332,Boise,,Suez (water) / City of Boise Public Works Department (wastewater),United States,North America,USD,private,1.32,Boise,Idaho,United States,43.6135,-116.20345
65,198,Bologna,New,HERA SpA,Italy,Western Europe,EUR,Private,2.63,Bologna,Emilia-Romagna,Italy,44.49381,11.33875
66,225,Bordeaux,New,Eau Bordeaux Métropole,France,Western Europe,EUR,Private,2.28,Bordeaux,Nouvelle-Aquitaine,France,44.84044,-0.5805
67,92,Boston,,Boston Water and Sewer Commission,United States,North America,USD,Public,1.88,Boston,Massachusetts,United States,42.35843,-71.05977
68,533,Brades,,Montserrat Utilities Limited,Montserrat,Latin America & Caribbean,XCD,Private,1.93,Brades,Saint Peter,Montserrat,16.79183,-62.21058
69,300,Brasilia,,CAESB,Brazil,Latin America & Caribbean,BRL,PPP,1.05,Brasilia,Federal District,Brazil,-15.77972,-47.92972
70,146,Bratislava,,BVS (Bratislavska Vodarenska Spolocnost a.s.),Slovakia,Eastern Europe & Central Asia,EUR,Public,1.27,Bratislava,Bratislavský,Slovakia,48.14816,17.10674
71,507,Brazzaville,,Société Nationale de Distribution d’Eau,Republic of Congo,Sub-Saharan Africa,XAF,,0.34,Brazzaville,Brazzaville,Republic of Congo,-4.26613,15.28318
72,224,Bremen,,SWB,Germany,Western Europe,EUR,,2.71,Bremen,Bremen,Germany,53.07516,8.80777
73,475,Bridgetown,,Barbados Water Authority,Barbados,Latin America & Caribbean,BBD,,1.38,Bridgetown,Saint Michael,Barbados,13.10732,-59.62021
74,252,Brisbane,,Queensland Urban Utilities,Australia,Asia Pacific,AUD,Public,3.51,Brisbane,Queensland,Australia,-27.46794,153.02809
75,118,Bristol,,Bristol Water (Water) / Wessex Water (Wastewater),United Kingdom,Western Europe,GBP,Private,1.98,Bristol,England,United Kingdom,51.45523,-2.59665
76,237,Brno,,Brnenske Vodarny a Kanalizace (BVK),Czech Republic,Eastern Europe & Central Asia,CZK,Public,1.71,Brno,South Moravian,Czech Republic,49.19522,16.60796
77,247,Brussels,,Vivaqua,Belgium,Western Europe,EUR,,2.54,Brussels,Brussels Capital,Belgium,50.85045,4.34878
78,56,Bucharest,,Apa Nova București,Romania,Eastern Europe & Central Asia,RON,Private,0.94,Bucharest,Bucureşti,Romania,44.43225,26.10626
79,210,Budapest,,Budapest Municipal Sewerage Company and Municipal Water Company,Hungary,Eastern Europe & Central Asia,HUF,Private,0.81,Budapest,Budapest,Hungary,47.49835,19.04045
80,2,Buenos Aires,,Agua y Saneamientos Argentinos S.A.,Argentina,Latin America & Caribbean,ARS,,0.68,Buenos Aires,Buenos Aires F.D.,Argentina,-34.61315,-58.37723
81,476,Bujumbura,,REGIDESO,Burundi,Sub-Saharan Africa,BIF,,0.23,Bujumbura,Bujumbura Mairie,Burundi,-3.3822,29.3644
82,461,Burlington,,City of Burlington,United States,North America,USD,Public,1.57,Burlington,Vermont,United States,44.47588,-73.21207
83,126,Bursa,New,Bursa Buyuksehir Belediyesi,Turkey,Eastern Europe & Central Asia,TRY,Private,0.65,Bursa,Bursa,Turkey,40.19559,29.06013
84,176,Busan,,Busan Water Authority,South Korea,Asia Pacific,KRW,Public,0.83,Busan,Busan,South Korea,35.10278,129.04028
85,21,Cairo,,Greater Cairo Water Company (GCWC),Egypt,Middle East & North Africa,EGP,Public,0.07,Cairo,Cairo,Egypt,30.06263,31.24967
86,240,Calgary,,City of Calgary Water Services,Canada,North America,CAD,Public,1.97,Calgary,Alberta,Canada,51.05011,-114.08529
87,388,Cali,,Emcali,Colombia,Latin America & Caribbean,COP,,0.84,Cali,Valle del Cauca,Colombia,3.43722,-76.5225
88,71,Cape Town,,City of Cape Town Water Dept,South Africa,Sub-Saharan Africa,ZAR,Public,2.27,Cape Town,Western Cape,South Africa,-33.92584,18.42322
89,116,Cardiff,,Welsh Water,United Kingdom,Western Europe,GBP,Private,2.03,Cardiff,Wales,United Kingdom,51.48,-3.18
90,44,Casablanca,,Lydec,Morocco,Middle East & North Africa,MAD,Private,0.74,Casablanca,Casablanca-Settat,Morocco,33.58831,-7.61138
91,498,Castries,,St. Lucia Water & Sanitation Corporation,Saint Lucia,Latin America & Caribbean,XCD,,1.5,Castries,Castries,Saint Lucia,13.9957,-61.00614
92,268,Chandigarh,,Municipal Corporation Chandigarh,India,South Asia,INR,Public,0.04,Chandigarh,Chandigarh,India,30.73629,76.7884
93,301,Changchun,,"Changhun Water （Group） Co., Ltd",China,Asia Pacific,CNY,Public,0.58,Changchun,Jilin,China,43.88,125.32278
94,424,Changsha,,Changsha Water Group Co. Ltd,China,Asia Pacific,CNY,PPP,0.24,Changsha,Hunan,China,28.19874,112.97087
95,333,"Charleston, SC",,Charleston Water,United States,North America,USD,public,1.26,"Charleston, SC",South Carolina,United States,32.77657,-79.93092
96,438,"Charleston, WV",,West Virginia American Water (water) / Charleston Sanitary Board (wastewater),United States,North America,USD,private,3.94,"Charleston, WV",West Virginia,United States,38.34982,-81.63262
97,492,Charlestown,,Nevis Water Department,Saint Kitts and Nevis,Latin America & Caribbean,XCD,,1.08,Charlestown,Saint Paul Charlestown,Saint Kitts and Nevis,17.13333,-62.61667
98,334,Charlotte,,Charlotte-Mecklenburg County Utilities,United States,North America,USD,public,1.01,Charlotte,North Carolina,United States,35.22709,-80.84313
99,526,Chefchaouen,,Office National de l'Electricité et de l'Eau Potable (ONEE),Morocco,Middle East & North Africa,MAD,Public,0.44,Chefchaouen,Tanger-Tetouan-Al Hoceima,Morocco,35.16878,-5.2636
100,302,Chengdu,,Chengdu Municipal Waterworks Co. Ltd.,China,Asia Pacific,CNY,Public,0.3,Chengdu,Sichuan,China,30.66667,104.06667
101,266,Chennai,,Chennai MetroWater,India,South Asia,INR,Public,0.12,Chennai,Tamil Nadu,India,13.08784,80.27847
102,445,Cheyenne,,City of Cheyenne Board of Public Utilities,United States,North America,USD,public,1.53,Cheyenne,Wyoming,United States,41.13998,-104.82025
103,185,Chiba,,Chiba Waterworks Bureau,Japan,Asia Pacific,JPY,Public,1.13,Chiba,Chiba,Japan,35.6,140.11667
104,113,Chicago,,Dept of Water Management,United States,North America,USD,Public,1.05,Chicago,Illinois,United States,41.85003,-87.65005
105,172,Chihuahua,,JMAS - Junta Municipal de Agua y Saneamiento de Chihuahua,Mexico,Latin America & Caribbean,MXN,Public,0.54,Chihuahua,Chihuahua,Mexico,28.63528,-106.08889
106,42,Chisinau,,S.A. Apa-Canal Chisinau,Moldova,Eastern Europe & Central Asia,MDL,Public,0.57,Chisinau,Chișinău Municipality,Moldova,47.00556,28.8575
107,15,Chongqing,,Chonqing Water Supply Company,China,Asia Pacific,CNY,Public,0.36,Chongqing,Chongqing,China,29.56278,106.55278
108,159,Christchurch,New,Christchurch City Council,New Zealand,Asia Pacific,NZD,Private,1.11,Christchurch,Canterbury,New Zealand,-43.53333,172.63333
109,171,Ciudad Juarez,,JMAS - Junta Municipal de Agua y Saneamiento de Ciudad Juárez,Mexico,Latin America & Caribbean,MXN,Public,0.85,Ciudad Juarez,Chihuahua,Mexico,31.72024,-106.46084
110,101,Cleveland,,Cleveland Water Department (water) / Cleveland Water Pollution Control (wastewater),United States,North America,USD,Public,1.64,Cleveland,Ohio,United States,41.4995,-81.69541
111,469,Coimbatore,,Coimbatore City Municipal Corporation,India,South Asia,INR,Public,0.1,Coimbatore,Tamil Nadu,India,11.00555,76.96612
112,73,Colombo,,NWSDB,Sri Lanka,South Asia,LKR,,0.08,Colombo,Western,Sri Lanka,6.93194,79.84778
113,579,Columbia,New,Columbia,United States,North America,USD,Public,0.99,Columbia,South Carolina,United States,34.00071,-81.03481
114,103,Columbus,,City of Columbus Dept of Public Utilities,United States,North America,USD,Public,1.6,Columbus,Ohio,United States,39.96118,-82.99879
115,235,Copenhagen,,HOFOR,Denmark,Western Europe,DKK,,3.0,Copenhagen,Capital Region,Denmark,55.67594,12.56553
116,564,Córdoba,New,Empresa Municipal de Aguas de Córdoba (EMACSA),Spain,Western Europe,EUR,Private,1.45,Córdoba,Andalusia,Spain,37.89155,-4.77275
117,207,Cork,,Cork County Council,Ireland,Western Europe,EUR,,0.0,Cork,Munster,Ireland,51.89797,-8.47061
118,355,Cotonou,,National Water Society of Benin (SONEB),Benin,Sub-Saharan Africa,XOF,Public,0.78,Cotonou,Littoral,Benin,6.36536,2.41833
119,534,Curaçao,,Aqualectra,Curaçao,Latin America & Caribbean,ANG,Private,5.88,Curaçao,,Curaçao,12.1084,-68.93354
120,286,Curitiba,,SANEPAR,Brazil,Latin America & Caribbean,BRL,PPP,1.35,Curitiba,Paraná,Brazil,-25.42778,-49.27306
121,179,Daegu,,Daegu Metropolitan City Waterworks,South Korea,Asia Pacific,KRW,Public,0.66,Daegu,Daegu,South Korea,35.87028,128.59111
122,181,Daejeon,,Daejeon Metropolitan Waterworks Authority,South Korea,Asia Pacific,KRW,Public,0.59,Daejeon,Daejeon,South Korea,36.32139,127.41972
123,287,Dakar,,Senegalaise des Eaux (SDE),Senegal,Sub-Saharan Africa,XOF,,0.63,Dakar,Dakar,Senegal,14.6937,-17.44406
124,303,Dalian,,"Dalian Water Supply Co., Ltd",China,Asia Pacific,CNY,Public,0.33,Dalian,Liaoning,China,38.91222,121.60222
125,106,Dallas,,Dallas Water Utilities,United States,North America,USD,Public,0.85,Dallas,Texas,United States,32.78306,-96.80667
126,74,Damascus,,Damascus Water Supply and Sewerage Authority (DAWSSA),Syria,Middle East & North Africa,SYP,Public,0.98,Damascus,Dimashq,Syria,33.5102,36.29128
127,304,Davao,,Davao City Water District,Philippines,Asia Pacific,PHP,Public,0.2,Davao,Davao,Philippines,7.07306,125.61278
128,211,Debrecen,,Debrecen Vizmu Reszvenutarsasag,Hungary,Eastern Europe & Central Asia,HUF,Public,1.01,Debrecen,Hajdú-Bihar,Hungary,47.53333,21.63333
129,94,Denver,,Denver Water (water) / Denver Department of Public Works (wastewater),United States,North America,USD,Public,1.67,Denver,Colorado,United States,39.73915,-104.9847
130,335,Des Moines,,Des Moines Water Works,United States,North America,USD,public,1.64,Des Moines,Iowa,United States,41.60054,-93.60911
131,93,Detroit,,Detroit Water and Sewerage Dept,United States,North America,USD,Public,1.39,Detroit,Michigan,United States,42.33143,-83.04575
132,258,Dhaka,,Dhaka WASA,Bangladesh,South Asia,BDT,,0.15,Dhaka,Dhaka,Bangladesh,23.7104,90.40744
133,478,Dili,,Direcção-Geral de Água e Saneamento,Timor-Leste,Asia Pacific,USD,,0.52,Dili,Díli,Timor-Leste,-8.55861,125.57361
134,174,Distrito Federal (Mexico City),,Sistema de Aguas de la Ciudad de Mexico (SACM),Mexico,Latin America & Caribbean,MXN,Public,0.86,Distrito Federal (Mexico City),Mexico City,Mexico,19.42847,-99.12766
135,129,Diyarbakir,,DISKI,Turkey,Eastern Europe & Central Asia,TRY,Public,0.49,Diyarbakir,Diyarbakır,Turkey,37.91363,40.21721
136,511,Djibouti,,l'Office National de l'Eau et de l'Assainissement de Djibouti,Djibouti,Sub-Saharan Africa,DJF,,0.78,Djibouti,Djibouti,Djibouti,11.58901,43.14503
137,566,Dnipro,New,Dniprovodokanal,Ukraine,Eastern Europe & Central Asia,UAH,Public,0.44,Dnipro,Dnipropetrovsk,Ukraine,48.4593,35.03865
138,55,Doha,,Kahramaa,Qatar,Middle East & North Africa,QAR,Public,1.51,Doha,Baladīyat ad Dawḩah,Qatar,25.28545,51.53096
139,261,Dongguan,,Dongguan Water Supply Company,China,Asia Pacific,CNY,Public,0.25,Dongguan,Guangdong,China,23.01797,113.74866
140,223,Dortmund,,DEW 21,Germany,Western Europe,EUR,,3.36,Dortmund,North Rhine-Westphalia,Germany,51.51494,7.466
141,357,Douala,,La Camerounaise des Eaux (CDE),Cameroon,Sub-Saharan Africa,XAF,Private,0.69,Douala,Littoral,Cameroon,4.04827,9.70428
142,472,Dover,,City of Dover,United States,North America,USD,Public,1.97,Dover,Delaware,United States,39.15817,-75.52437
143,558,Dresden,New,Drewag,Germany,Western Europe,EUR,Private,2.47,Dresden,Saxony,Germany,51.05089,13.73832
144,77,Dubai,,Dubai Energy and Water Authority (DEWA),UAE,Middle East & North Africa,AED,,2.61,Dubai,Dubai,UAE,25.0657,55.17128
145,206,Dublin,,Dublin City Council,Ireland,Western Europe,EUR,,0.0,Dublin,Leinster,Ireland,53.33306,-6.24889
146,387,Durban,,eThekwini Municipality Water and Sanitation Unit,South Africa,Sub-Saharan Africa,ZAR,,1.87,Durban,KwaZulu-Natal,South Africa,-29.8579,31.0292
147,376,Dushanbe,,Dushanbe Vodokanal (DVK),Tajikistan,Eastern Europe & Central Asia,TJS,Public,0.05,Dushanbe,Dushanbe,Tajikistan,38.53575,68.77905
148,220,Düsseldorf,,Stadtwerke Düsseldorf (water) / Stadtentwässerungsbetrieb Düsseldorf (wastewater),Germany,Western Europe,EUR,,2.74,Düsseldorf,North Rhine-Westphalia,Germany,51.22172,6.77616
149,241,Edmonton,,EPCOR (water) / City of Edmonton (wastewater),Canada,North America,CAD,Public,1.93,Edmonton,Alberta,Canada,53.55014,-113.46871
150,109,El Paso,,El Paso Water Utilities,United States,North America,USD,Public,1.43,El Paso,Texas,United States,31.75872,-106.48693
151,563,Eskisehir,New,Eski Genel Mudur,Turkey,Eastern Europe & Central Asia,TRY,Public,0.38,Eskisehir,Eskişehir,Turkey,39.77667,30.52056
152,233,Espoo,,HSY,Finland,Western Europe,EUR,,1.96,Espoo,Uusimaa,Finland,60.2052,24.6522
153,525,Essaouira,,Office National de l'Electricité et de l'Eau Potable (ONEE),Morocco,Middle East & North Africa,MAD,Public,0.6,Essaouira,Marrakesh-Safi,Morocco,31.5125,-9.77
154,222,Essen,,Stadtwerke Essen,Germany,Western Europe,EUR,,3.58,Essen,North Rhine-Westphalia,Germany,51.45657,7.01228
155,447,Faisalabad,,Water and Sanitation Agency,Pakistan,South Asia,PKR,Public,0.06,Faisalabad,Punjab,Pakistan,31.41554,73.08969
156,336,Fargo,,City of Fargo Utilities Service,United States,North America,USD,public,1.16,Fargo,North Dakota,United States,46.87719,-96.7898
157,267,Faridabad,,Faridabad Municipal Corporation,India,South Asia,INR,Public,0.05,Faridabad,Haryana,India,28.41124,77.31316
158,98,Fort Worth,,City of Fort Worth Water,United States,North America,USD,Public,1.56,Fort Worth,Texas,United States,32.72541,-97.32085
159,416,Foshan - Chancheng,,Foshan Water Industry Group Co Ltd,China,Asia Pacific,CNY,Private,0.28,Foshan - Chancheng,Guangdong,China,23.02677,113.13148
160,417,Foshan - Gaoming,,Foshan Water Industry Group Co Ltd,China,Asia Pacific,CNY,Private,0.22,Foshan - Gaoming,Guangdong,China,23.02677,113.13148
161,418,Foshan - Nanhai,,Foshan Water Industry Group Co Ltd,China,Asia Pacific,CNY,Private,0.27,Foshan - Nanhai,Guangdong,China,23.02677,113.13148
162,419,Foshan - Sanshui,,Foshan Water Industry Group Co Ltd,China,Asia Pacific,CNY,Private,0.25,Foshan - Sanshui,Guangdong,China,23.02677,113.13148
163,420,Foshan - Shunde,,Foshan Water Industry Group Co Ltd,China,Asia Pacific,CNY,Private,0.27,Foshan - Shunde,Guangdong,China,23.02677,113.13148
164,215,Frankfurt,,Mainova AG (water) / Stadtentwässerung Frankfurt am Main (wastewater),Germany,Western Europe,EUR,,2.42,Frankfurt,Hesse,Germany,50.11552,8.68417
165,573,Fresno,New,City of Fresno,United States,North America,USD,Public,1.51,Fresno,California,United States,36.74773,-119.77237
166,186,Fukuoka,,Fukuoka City Waterworks Bureau,Japan,Asia Pacific,JPY,Public,1.2,Fukuoka,Fukuoka,Japan,33.6,130.41667
167,567,Fuzhou,New,"Fuzhou Water Co.,ltd",China,Asia Pacific,CNY,Public,0.3,Fuzhou,Fujian,China,26.06139,119.30611
168,8,Gaborone,,Water Utilities Corporation,Botswana,Sub-Saharan Africa,BWP,Public,1.07,Gaborone,Gaborone,Botswana,-24.65451,25.90859
169,128,Gaziantep,,GASKI,Turkey,Eastern Europe & Central Asia,TRY,Public,0.82,Gaziantep,Gaziantep,Turkey,37.05944,37.3825
170,151,Gdansk,,Saur Neptun Gdansk S. A.,Poland,Eastern Europe & Central Asia,PLN,Private,1.22,Gdansk,Pomerania,Poland,54.35205,18.64637
171,134,Geneva,,SIG,Switzerland,Western Europe,CHF,,2.65,Geneva,Geneva,Switzerland,46.20222,6.14569
172,203,Genova,,Mediterranea delle Acque SpA,Italy,Western Europe,EUR,,1.51,Genova,Liguria,Italy,44.40478,8.94439
173,246,Gent,,Farys,Belgium,Western Europe,EUR,,2.97,Gent,Flanders,Belgium,51.05,3.71667
174,381,George Town (Penang),,PBAPP (water) / Indah Water (wastewater),Malaysia,Asia Pacific,MYR,,0.05,George Town (Penang),Penang,Malaysia,5.41123,100.33543
175,433,"George Town, Grand Cayman",,Water Authority - Cayman,Cayman Islands (UK),Latin America & Caribbean,KYD,Public,4.22,"George Town, Grand Cayman",Grand Cayman,Cayman Islands (UK),19.2866,-81.37436
176,385,"Georgetown, Guyana",,Guyana Water Inc,Guyana,Latin America & Caribbean,GYD,Public,0.45,"Georgetown, Guyana",Demerara-Mahaica,Guyana,6.80448,-58.15527
177,462,"Georgetown, TX",,Georgetown Utility Services,United States,North America,USD,Public,1.5,"Georgetown, TX",Texas,United States,30.63269,-97.67723
178,457,Gibraltar,,AquaGib (Northumbrian Water),United Kingdom,Western Europe,GBP,Private,6.69,Gibraltar,,United Kingdom,36.14474,-5.35257
179,115,Glasgow,,Scottish Water,United Kingdom,Western Europe,GBP,Public,2.47,Glasgow,Scotland,United Kingdom,55.86515,-4.25763
180,136,Gothenburg,,Göteborg Vatten,Sweden,Western Europe,SEK,,1.58,Gothenburg,Västra Götaland,Sweden,57.70716,11.96679
181,249,Graz,,Graz Holding Services,Austria,Western Europe,EUR,,2.91,Graz,Styria,Austria,47.06667,15.45
182,168,Guadalajara,,Sistema Intermunicipal de los Servicios de Agua Potable y Alcantarillado (SIAPA),Mexico,Latin America & Caribbean,MXN,Public,0.69,Guadalajara,Jalisco,Mexico,20.66682,-103.39182
183,17,Guangzhou,,Guangzhou Water Supply Company,China,Asia Pacific,CNY,Public,0.29,Guangzhou,Guangdong,China,23.11667,113.25
184,431,Guatemala City,,Empresa Municipal de Agua Guatemala City,Guatemala,Latin America & Caribbean,GTQ,Public,0.31,Guatemala City,Guatemala,Guatemala,14.64072,-90.51327
185,20,Guayaquil,,Water Services Interagua,Ecuador,Latin America & Caribbean,USD,,0.41,Guayaquil,Guayas,Ecuador,-2.19616,-79.88621
186,450,Gujranwala,,Water and Sanitation Agency,Pakistan,South Asia,PKR,Public,0.04,Gujranwala,Punjab,Pakistan,32.15567,74.18705
187,305,Gwalior,,Gwalior Municipal Corporation,India,South Asia,INR,Public,0.14,Gwalior,Madhya Pradesh,India,26.22983,78.17337
188,178,Gwangju,,Gwangju Metropolitan Waterworks,South Korea,Asia Pacific,KRW,Public,0.65,Gwangju,Gwangju,South Korea,35.15472,126.91556
189,503,Haifa,,Mei Carmel Water,Israel,Middle East & North Africa,ILS,Public,2.08,Haifa,Haifa,Israel,32.81841,34.9885
190,568,Haikou,New,Haikou Veolia Water,China,Asia Pacific,CNY,PPP,0.28,Haikou,Hainan,China,20.04583,110.34167
191,218,Hamburg,,Hamburg Wasser,Germany,Western Europe,EUR,,2.35,Hamburg,Hamburg,Germany,53.57532,10.01534
192,584,Hamilton,New,Horizon Utilities,Canada,North America,CAD,Private,1.72,Hamilton,Hamilton city,Bermuda (UK),32.2949,-64.78303
193,440,Hamilton,,Government of Bermuda,Bermuda (UK),North America,USD,Public,6.06,Hamilton,Hamilton city,Bermuda (UK),32.2949,-64.78303
194,16,Hangzhou,,Hangzhou Water Supply Company,China,Asia Pacific,CNY,Public,0.28,Hangzhou,Zhejiang,China,30.29365,120.16142
195,85,Hanoi,,Hanoi Water Company,Vietnam,Asia Pacific,VND,,0.29,Hanoi,Hanoi,Vietnam,21.0245,105.84117
196,559,Hanover,New,Enercity,Germany,Western Europe,EUR,Private,2.5,Hanover,Lower Saxony,Germany,52.37052,9.73322
197,383,Harare,,Harare City,Zimbabwe,Sub-Saharan Africa,ZWL,Public,0.27,Harare,Harare,Zimbabwe,-17.82772,31.05337
198,306,Harbin,,Harbin GPS Group,China,Asia Pacific,CNY,Public,0.37,Harbin,Heilongjiang,China,45.75,126.65
199,529,Hargeisa,,Hargeisa Water Agency,Somaliland,Sub-Saharan Africa,SLS,,1.73,Hargeisa,Woqooyi Galbeed,Somaliland,9.563056,44.0675
200,459,Hartford,,"Metropolitan District Hartford, Connecticut",United States,North America,USD,public,2.23,Hartford,Connecticut,United States,41.76371,-72.68509
201,19,Havana,,Aguas de la Habana,Cuba,Latin America & Caribbean,CUP,Public,0.01,Havana,Havana,Cuba,23.13302,-82.38304
202,569,Hefei,New,Hefei Water,China,Asia Pacific,CNY,Public,0.3,Hefei,Anhui,China,31.86389,117.28083
203,234,Helsinki,,HSY,Finland,Western Europe,EUR,,1.96,Helsinki,Uusimaa,Finland,60.16952,24.93545
204,530,Herat,,Afghanistan Urban Water Supply and Sewerage Corporation,Afghanistan,South Asia,AFN,,0.4,Herat,Herat,Afghanistan,34.34817,62.19967
205,194,Hiroshima,,"City of Hiroshima, Waterworks Bureau",Japan,Asia Pacific,JPY,Public,0.89,Hiroshima,Hiroshima,Japan,34.4,132.45
206,84,Ho Chi Minh City,,Ho Chi Minh City Water Company,Vietnam,Asia Pacific,VND,,0.25,Ho Chi Minh City,Ho Chi Minh,Vietnam,10.82302,106.62965
207,12,Hong Kong,,The Govt of Hong Kong Water Supplies Dept,Hong Kong,Asia Pacific,CNY,Public,0.58,Hong Kong,Central and Western,Hong Kong,22.27832,114.17469
208,496,Honiara,,Solomon Islands Water Authority,Solomon Islands,Asia Pacific,SBD,,0.78,Honiara,Guadalcanal,Solomon Islands,-9.43333,159.95
209,275,Honolulu,,City of Honolulu,United States,North America,USD,Public,1.78,Honolulu,Hawaii,United States,21.30694,-157.85833
210,105,Houston,,Dept of Public Works and Engineering,United States,North America,USD,Public,1.69,Houston,Texas,United States,29.76328,-95.36327
211,265,Hyderabad,,Hyderabad Metropolitan Water Supply and Sewerage Board,India,South Asia,INR,Public,0.16,Hyderabad,Telangana,India,17.38405,78.45636
212,180,Incheon,,Incheon Metropolitan City Waterworks,South Korea,Asia Pacific,KRW,Public,0.6,Incheon,Incheon,South Korea,37.45646,126.70515
213,97,Indianapolis,,Citizens Water,United States,North America,USD,Public,1.88,Indianapolis,Indiana,United States,39.76838,-86.15804
214,411,Ipoh,,Lembaga Air Perak,Malaysia,Asia Pacific,MYR,Public,0.1,Ipoh,Perak,Malaysia,4.5841,101.0829
215,369,Islamabad,,Capital Development Authority,Pakistan,South Asia,PKR,Public,0.01,Islamabad,Islamabad,Pakistan,33.72148,73.04329
216,123,Istanbul,,ISKI,Turkey,Eastern Europe & Central Asia,TRY,Public,0.74,Istanbul,Istanbul,Turkey,41.01384,28.94966
217,546,Izhevsk,New,Izhvodokanal,Russia,Eastern Europe & Central Asia,RUB,Public,0.37,Izhevsk,Udmurtiya Republic,Russia,56.84976,53.20448
218,124,Izmir,,IZSU,Turkey,Eastern Europe & Central Asia,TRY,Public,0.54,Izmir,İzmir,Turkey,38.41273,27.13838
219,337,Jackson,,City of Jackson Public Works,United States,North America,USD,public,1.63,Jackson,Mississippi,United States,32.29876,-90.18481
220,99,Jacksonville,New,JEA (water & wastewater) / Jacksonville Stormwater Utility (Stormwater),United States,North America,USD,Private,1.18,Jacksonville,Florida,United States,30.33218,-81.65565
221,468,Jaipur,,Jaipur Nagar Nigam,India,South Asia,INR,Public,0.06,Jaipur,Rajasthan,India,26.91962,75.78781
222,30,Jakarta,,Palyja,Indonesia,Asia Pacific,IDR,,0.43,Jakarta,Jakarta,Indonesia,-6.21462,106.84513
223,68,Jeddah,,National Water Company,Saudi Arabia,Middle East & North Africa,SAR,Public,0.12,Jeddah,Makkah,Saudi Arabia,21.54238,39.19797
224,33,Jerusalem,,Hagihon,Israel,Middle East & North Africa,ILS,,1.21,Jerusalem,Jerusalem,Israel,31.76904,35.21633
225,307,Jinan,,"Jinan Water Supply Group Co., Ltd",China,Asia Pacific,CNY,Public,0.5,Jinan,Shandong,China,36.66833,116.99722
226,308,Jodhpur,,Jodhpur Nagar Nigam,India,South Asia,INR,Public,0.06,Jodhpur,Rajasthan,India,26.26841,73.00594
227,72,Johannesburg,,Johannesburg Water,South Africa,Sub-Saharan Africa,ZAR,Public,1.05,Johannesburg,Gauteng,South Africa,-26.20227,28.04363
228,309,Johor Baru,,SAJ Holdings,Malaysia,Asia Pacific,MYR,Private,0.19,Johor Baru,Johor,Malaysia,1.4655,103.7578
229,439,Juneau,,City and Borough of Juneau Utilities Division,United States,North America,USD,public,1.65,Juneau,Alaska,United States,58.30194,-134.41972
230,505,Kabul,,Afghanistan Urban Water Supply and Sewerage Corporation,Afghanistan,South Asia,AFN,,0.4,Kabul,Kabul,Afghanistan,34.52813,69.17233
231,289,Kampala,,National Water and Sewerage Corporation (NWSC),Uganda,Sub-Saharan Africa,UGX,,0.94,Kampala,Central Region,Uganda,0.31628,32.58219
232,412,Kangar,,Syarikat Air Perlis,Malaysia,Asia Pacific,MYR,Public,0.1,Kangar,Perlis,Malaysia,6.4414,100.19862
233,338,Kansas City,,Kansas City Water Services Department,United States,North America,USD,public,2.65,Kansas City,Missouri,United States,39.09973,-94.57857
234,49,Karachi,,Karachi Water and Sewerage Board (KWSB),Pakistan,South Asia,PKR,Public,0.15,Karachi,Sindh,Pakistan,24.8608,67.0104
235,46,Kathmandu,,Kathmandu Upatyaka Khanepani Limited (KUKL),Nepal,South Asia,NPR,,0.16,Kathmandu,Central Region,Nepal,27.70169,85.3206
236,195,Kawasaki,,"City of Kawasaki, Waterworks Bureau",Japan,Asia Pacific,JPY,Public,0.94,Kawasaki,Kanagawa,Japan,35.52056,139.71722
237,543,Kazan,New,State Committee of the Republic of Tatarstan,Russia,Eastern Europe & Central Asia,RUB,Public,0.6,Kazan,Tatarstan Republic,Russia,55.78874,49.12214
238,413,Kelantan,,Air Kelantan Sdn Bhd,Malaysia,Asia Pacific,MYR,Public,0.11,Kelantan,Kelantan,Malaysia,6.13328,102.2386
239,550,Kemerovo,New,LLC Vodokanal,Russia,Eastern Europe & Central Asia,RUB,Public,0.45,Kemerovo,Kemerovo Oblast,Russia,55.33333,86.08333
240,79,Kharkiv,,KharkivVodokanal,Ukraine,Eastern Europe & Central Asia,UAH,Public,0.46,Kharkiv,Kharkiv,Ukraine,49.98081,36.25272
241,290,Khouribga,,Office National de l'Electricité et de l'Eau Potable (ONEE),Morocco,Middle East & North Africa,MAD,Public,0.68,Khouribga,Béni Mellal-Khénifra,Morocco,32.88108,-6.9063
242,310,Khulna,,Khulna WASA,Bangladesh,South Asia,BDT,,0.12,Khulna,Khulna,Bangladesh,22.80979,89.56439
243,271,Kigali,,Water and Sanitation Corporation (WASAC),Rwanda,Sub-Saharan Africa,RWF,Public,0.78,Kigali,Kigali,Rwanda,-1.94995,30.05885
244,373,Kingston,,National Water Commission,Jamaica,Latin America & Caribbean,JMD,Public,1.26,Kingston,Kingston,Jamaica,17.99702,-76.79358
245,499,Kingstown,,Central Water & Sewerage Authority (CWSA),Saint Vincent and the Grenadines,Latin America & Caribbean,XCD,,1.29,Kingstown,Saint George,Saint Vincent and the Grenadines,13.15527,-61.22742
246,311,Kohlapur,,Kohlapur Municipal Corporation,India,South Asia,INR,Public,0.15,Kohlapur,Maharashtra,India,16.69563,74.23167
247,27,Kolkata,,Kolkata Municipal Corporation (KMC),India,South Asia,INR,Public,0.1,Kolkata,West Bengal,India,22.56263,88.36304
248,219,Köln,,RheinEnergie AG (water) / Stadtentwässerungsbetriebe Köln (wastewater),Germany,Western Europe,EUR,,2.34,Köln,North Rhine-Westphalia,Germany,50.93333,6.95
249,130,Konya,,KOSKI,Turkey,Eastern Europe & Central Asia,TRY,Public,0.57,Konya,Konya,Turkey,37.87135,32.48464
250,145,Kosice,,VVS (Východoslovenská vodárenská spoločnost),Slovakia,Eastern Europe & Central Asia,EUR,Public,2.17,Kosice,Košický,Slovakia,48.71395,21.25808
251,155,Krakow,,Miejskie Przedsiębiorstwo Wodociągów i Kanalizacji S.A.,Poland,Eastern Europe & Central Asia,PLN,Public,1.23,Krakow,Lesser Poland,Poland,50.06143,19.93658
252,544,Krasnodar,New,Krasnodar Vodokanal,Russia,Eastern Europe & Central Asia,RUB,Public,0.6,Krasnodar,Krasnodarskiy,Russia,45.04484,38.97603
253,63,Krasnoyarsk,,JSC Krasnoyarsk,Russia,Eastern Europe & Central Asia,RUB,Public,0.39,Krasnoyarsk,Krasnoyarskiy,Russia,56.01839,92.86717
254,561,Kryvyi Rih,New,Krivbasvodokanal,Ukraine,Eastern Europe & Central Asia,UAH,Public,0.33,Kryvyi Rih,Dnipropetrovsk,Ukraine,47.90966,33.38044
255,270,Kuala Lumpur,,SYABAS (water) / Indah Water (wastewater),Malaysia,Asia Pacific,MYR,,0.14,Kuala Lumpur,Kuala Lumpur,Malaysia,3.1412,101.68653
256,410,Kuala Terengganu,,Syarikat Air Terengganu,Malaysia,Asia Pacific,MYR,Public,0.1,Kuala Terengganu,Terengganu,Malaysia,5.3302,103.1408
257,521,Kuantan,,PBAPP (water) / Indah Water (wastewater),Malaysia,Asia Pacific,MYR,Public,0.09,Kuantan,Pahang,Malaysia,3.8077,103.326
258,523,Kuching,,PBAPP (water) / Indah Water (wastewater),Malaysia,Asia Pacific,MYR,Public,0.12,Kuching,Sarawak,Malaysia,1.55,110.33333
259,183,Kumamoto,,Hitoyoshi City Waterworks Bureau,Japan,Asia Pacific,JPY,Public,1.24,Kumamoto,Kumamoto,Japan,32.80589,130.69181
260,312,Kunming,,"Kunming CGE Water Supply Co., Ltd",China,Asia Pacific,CNY,PPP,0.47,Kunming,Yunnan,China,25.03889,102.71833
261,392,Kuwait City,,Ministry of Electricity and Water,Kuwait,Middle East & North Africa,KWD,Public,0.58,Kuwait City,Al Asimah,Kuwait,29.36972,47.97833
262,78,Kyiv,,Kiyevvodokanal,Ukraine,Eastern Europe & Central Asia,UAH,Public,0.41,Kyiv,City of Kyiv,Ukraine,50.45466,30.5238
263,190,Kyoto,,City of Kyoto Water Dept,Japan,Asia Pacific,JPY,Public,1.24,Kyoto,Kyoto,Japan,35.02107,135.75385
264,356,La Paz,,Empresa pública social de Agua y Saneamiento EPSAS,Bolivia,Latin America & Caribbean,BOB,Public,0.49,La Paz,La Paz,Bolivia,-16.5,-68.15
265,47,Lagos,,Lagos Water Company,Nigeria,Sub-Saharan Africa,NGN,Public,0.65,Lagos,Lagos,Nigeria,6.45407,3.39467
266,368,Lahore,,"Water and Sanitation Agency, Lahore",Pakistan,South Asia,PKR,Public,0.02,Lahore,Punjab,Pakistan,31.558,74.35071
267,313,Lanzhou,,Lanzhou Veolia Water Group,China,Asia Pacific,CNY,PPP,0.28,Lanzhou,Gansu,China,36.05701,103.83987
268,273,Las Palmas,,EMALSA,Spain,Western Europe,EUR,PPP,2.35,Las Palmas,Canary Islands,Spain,28.09973,-15.41343
269,96,Las Vegas,,Las Vegas Valley Water District,United States,North America,USD,Public,2.07,Las Vegas,Nevada,United States,36.17497,-115.13722
270,397,Leeds,,Yorkshire Water,United Kingdom,Western Europe,GBP,Private,1.92,Leeds,England,United Kingdom,53.79648,-1.54785
271,557,Leipzig,New,Leipziger Wasserwerke,Germany,Western Europe,EUR,Private,2.91,Leipzig,Saxony,Germany,51.33962,12.37129
272,164,León,,Sistema de Agua Potable y Alcantarillado de Leon (SAPAL),Mexico,Latin America & Caribbean,MXN,Public,1.24,León,Guanajuato,Mexico,21.12908,-101.67374
273,405,Lexington,,Kentucky American Water Co,United States,North America,USD,Private,2.43,Lexington,Kentucky,United States,37.98869,-84.47772
274,480,Libreville,,Société d'Energie et d'Eau du Gabon (SEEG),Gabon,Sub-Saharan Africa,XAF,,1.03,Libreville,Estuaire,Gabon,0.39241,9.45356
275,384,Lilongwe,,Lilongwe Water Board,Malawi,Sub-Saharan Africa,MWK,Public,0.7,Lilongwe,Central Region,Malawi,-13.96692,33.78725
276,52,Lima,,Sedapal,Peru,Latin America & Caribbean,PEN,,0.64,Lima,Lima,Peru,-12.04318,-77.02824
277,451,Limassol,,Water Board of Limassol (water) / Sewerage Board of Limassol (wastewater),Cyprus,Western Europe,EUR,Public,1.69,Limassol,Limassol,Cyprus,34.68406,33.03794
278,577,Lincoln,New,City of Lincoln,United States,North America,USD,Public,0.96,Lincoln,Nebraska,United States,40.8,-96.66696
279,250,Linz,New,Linz AG,Austria,Western Europe,EUR,Private,1.62,Linz,Upper Austria,Austria,48.30639,14.28611
280,149,Lisbon,,EPAL,Portugal,Western Europe,EUR,Public,1.44,Lisbon,Lisbon,Portugal,38.71667,-9.13333
281,441,Little Rock,,Central Arkansas Water,United States,North America,USD,Public,0.92,Little Rock,Arkansas,United States,34.74648,-92.28959
282,291,Ljubljana,,Vodovod-Kanalizacija,Slovenia,Eastern Europe & Central Asia,EUR,Public,0.95,Ljubljana,Ljubljana,Slovenia,46.05108,14.50513
283,152,Lodz,,Zakład Wodociągów i Kanalizacji Lodz,Poland,Eastern Europe & Central Asia,PLN,Public,1.52,Lodz,Łódź Voivodeship,Poland,51.77058,19.47395
284,394,Lomé,,Societe Togolaise des Eaux,Togo,Sub-Saharan Africa,XOF,Public,0.61,Lomé,Maritime,Togo,6.12874,1.22154
285,121,London,,Thames Water,United Kingdom,Western Europe,GBP,Private,1.86,London,England,United Kingdom,51.50853,-0.12574
286,587,Long Beach,New,Long Beach Water,United States,North America,USD,Public,1.91,Long Beach,California,United States,33.76696,-118.18923
287,104,Los Angeles,,Los Angeles Dept of Water and Power,United States,North America,USD,Public,2.31,Los Angeles,California,United States,34.05223,-118.24368
288,102,Louisville,,Louisville Water Company (water) / Louisville/Jefferson County Metropolitan Sewer District (wastewater),United States,North America,USD,Public,1.54,Louisville,Kentucky,United States,38.25424,-85.75941
289,353,Luanda,,Empresa Pública de Águas,Angola,Sub-Saharan Africa,AOA,Public,0.28,Luanda,Luanda,Angola,-8.83682,13.23432
290,276,Lusaka,,LWSC,Zambia,Sub-Saharan Africa,ZMW,Public,0.66,Lusaka,Lusaka,Zambia,-15.40669,28.28713
291,175,Luxembourg,,Ville de Luxembourg,Luxembourg,Western Europe,EUR,,2.86,Luxembourg,Luxembourg,Luxembourg,49.61167,6.13
292,80,Lviv,,Lvivvodokanal,Ukraine,Eastern Europe & Central Asia,UAH,Public,0.36,Lviv,Lviv,Ukraine,49.83826,24.02324
293,228,Lyon,,Véolia Eau - Compagnie Générale Des Eaux (water) / Métropole de Lyon (wastewater),France,Western Europe,EUR,Private,1.9,Lyon,Auvergne-Rhône-Alpes,France,45.74846,4.84671
294,542,Maafushi,,Male Water and Sewerage Company,Maldives,South Asia,MVR,,4.74,Maafushi,Kaafu Atoll,Maldives,3.940278,73.488889
295,141,Madrid,,Canal de Isabel II,Spain,Western Europe,EUR,Public,1.14,Madrid,Madrid,Spain,40.4165,-3.70256
296,488,Majuro,,Majuro Water & Sewerage Company,Marshall Islands,Asia Pacific,USD,,1.59,Majuro,Majuro Atoll,Marshall Islands,7.08971,171.38027
297,509,Malabo,,Sociedad de Electricidad de Guinea Ecuatorial S.A.,Equatorial Guinea,Sub-Saharan Africa,XAF,,1.95,Malabo,Bioko Norte,Equatorial Guinea,3.75578,8.78166
298,519,Malacca City,,PBAPP (water) / Indah Water (wastewater),Malaysia,Asia Pacific,MYR,Public,0.14,Malacca City,Melaka,Malaysia,2.196,102.2405
299,144,Malaga,,EMASA,Spain,Western Europe,EUR,Public,1.02,Malaga,Andalusia,Spain,36.72016,-4.42034
300,487,Male,,Male Water and Sewerage Company,Maldives,South Asia,MVR,Public,3.91,Male,Kaafu Atoll,Maldives,4.17521,73.50916
301,135,Malmö,,Malmo Vatten,Sweden,Western Europe,SEK,,1.11,Malmö,Skåne,Sweden,55.60587,13.00073
302,513,Managua,,Empresa Nicaraguesne de Acueductes y Alcantarillados Sanitarios (ENACAL),Nicaragua,Latin America & Caribbean,NIO,,0.31,Managua,Managua,Nicaragua,12.13282,-86.2504
303,6,Manama (Bahraini citizens),,Kingdom of Bahrain Ministry of Electricity and Water,Bahrain,Middle East & North Africa,BHD,,0.24,Manama (Bahraini citizens),Manama,Bahrain,26.22787,50.58565
304,465,Manama (Expats),,Kingdom of Bahrain Ministry of Electricity and Water,Bahrain,Middle East & North Africa,BHD,,2.17,Manama (Expats),Manama,Bahrain,26.22787,50.58565
305,117,Manchester,,United Utilities,United Kingdom,Western Europe,GBP,Private,2.65,Manchester,England,United Kingdom,53.48095,-2.23743
306,442,"Manchester, NH",,City of Manchester,United States,North America,USD,Public,1.49,"Manchester, NH",New Hampshire,United States,42.99564,-71.45479
307,53,Manila (Maynilad),,Maynilad Water Services Inc,Philippines,Asia Pacific,PHP,,0.41,Manila (Maynilad),Metro Manila,Philippines,14.6042,120.9822
308,54,Manila Water Company,,Manila Water Company,Philippines,Asia Pacific,PHP,,0.29,Manila Water Company,Metro Manila,Philippines,14.6042,120.9822
309,292,Maputo,,Águas de Moçambique,Mozambique,Sub-Saharan Africa,MZN,Private,0.53,Maputo,Maputo City,Mozambique,-25.96553,32.58322
310,227,Marseille,,Eaux de Marseille,France,Western Europe,EUR,Private,2.37,Marseille,Provence-Alpes-Côte d'Azur,France,43.29695,5.38107
311,314,Maseru,,Lesotho WASA,Lesotho,Sub-Saharan Africa,LSL,Public,0.88,Maseru,Maseru,Lesotho,-29.31667,27.48333
312,484,Mashhad,,Mashhad Water & Wastewater Co.,Iran,Middle East & North Africa,IRR,Public,0.09,Mashhad,Razavi Khorasan,Iran,36.31559,59.56796
313,277,Mbabane,,Eswatini Water Services Corporation (EWSC),Eswatini,Sub-Saharan Africa,SZL,Public,3.81,Mbabane,Hhohho,Eswatini,-26.31667,31.13333
314,358,Medellín,,Empresas Publicas de Medellin E.S.P. (EPM),Colombia,Latin America & Caribbean,COP,Public,0.82,Medellín,Antioquia,Colombia,6.25184,-75.56359
315,254,Melbourne (City West),,City West Water,Australia,Asia Pacific,AUD,Public,2.79,Melbourne (City West),Victoria,Australia,-37.814,144.96332
316,114,Memphis,,MLGW,United States,North America,USD,Public,0.71,Memphis,Tennessee,United States,35.14953,-90.04898
317,585,Mesa,New,City of Mesa,United States,North America,USD,Public,2.08,Mesa,Arizona,United States,33.42227,-111.82264
318,524,Mettmann,,Stadtwerke Düsseldorf (water) / Stadtentwässerungsbetrieb Düsseldorf (wastewater),Germany,Western Europe,EUR,,2.81,Mettmann,North Rhine-Westphalia,Germany,51.2504,6.97536
319,112,Miami,,Miami-Dade County Water and Sewer Department,United States,North America,USD,public,0.69,Miami,Florida,United States,25.77427,-80.19366
320,204,Milan,,Metropolitana Milanese S.p.A.,Italy,Western Europe,EUR,,0.16,Milan,Lombardy,Italy,45.46427,9.18951
321,339,Milwaukee,,Milwaukee Water Works,United States,North America,USD,public,1.34,Milwaukee,Wisconsin,United States,43.0389,-87.90647
322,340,Minneapolis,,Minneapolis Water Works,United States,North America,USD,public,1.74,Minneapolis,Minnesota,United States,44.97997,-93.26384
323,7,Minsk,,Minskvodokanal,Belarus,Eastern Europe & Central Asia,BYN,Public,0.41,Minsk,Minsk City,Belarus,53.9,27.56667
324,209,Miskolc,,MIVIZ,Hungary,Eastern Europe & Central Asia,HUF,Public,1.11,Miskolc,Borsod-Abaúj-Zemplén,Hungary,48.1,20.78333
325,400,Mombasa,,Mombasa Water Supply and Sanitation Company,Kenya,Sub-Saharan Africa,KES,Public,0.83,Mombasa,Mombasa,Kenya,-4.05466,39.66359
326,396,Monaco,,Societe Monegasque des Eaux,Monaco,Western Europe,EUR,Public,5.61,Monaco,,Monaco,43.73333,7.41667
327,375,Monrovia,,Liberia Water and Sewer Corporation,Liberia,Sub-Saharan Africa,USD,Public,0.71,Monrovia,Montserrado,Liberia,6.30054,-10.7969
328,274,Monterrey,,Servicios de Agua y Drenaje de Monterrey,Mexico,Latin America & Caribbean,MXN,Public,0.73,Monterrey,Nuevo León,Mexico,25.67507,-100.31847
329,364,Montevideo,,Obras Sanitarias del Estado  (OSE),Uruguay,Latin America & Caribbean,UYU,Public,1.02,Montevideo,Montevideo,Uruguay,-34.90328,-56.18816
330,583,Montreal,New,Ville de Montreal,Canada,North America,CAD,Public,2.31,Montreal,Québec,Canada,45.50884,-73.58781
331,166,Morelia,,"Organismo Operador de Agua Potable, Alcantarillado y Saneamiento de Morelia (OOAPAS)",Mexico,Latin America & Caribbean,MXN,Public,0.51,Morelia,Michoacán,Mexico,19.70078,-101.18443
332,58,Moscow,,Mosvodokanal Moscow Public Utility Enterprise,Russia,Eastern Europe & Central Asia,RUB,Public,0.63,Moscow,Moscow,Russia,55.75222,37.61556
333,449,Multan,,Water and Sanitation Agency,Pakistan,South Asia,PKR,Public,0.04,Multan,Punjab,Pakistan,30.19679,71.47824
334,29,Mumbai,,Municipal Corporation of Greater Mumbai,India,South Asia,INR,Public,0.12,Mumbai,Maharashtra,India,19.07283,72.88261
335,221,Munich,,Stadtwerke München (SWM),Germany,Western Europe,EUR,,2.53,Munich,Bavaria,Germany,48.13743,11.57549
336,555,Murcia,New,Aguas de Murcia (EMUASA),Spain,Western Europe,EUR,Private,2.05,Murcia,Murcia,Spain,37.98704,-1.13004
337,48,Muscat,,Public Authority for Electricity and Water (PAEW),Oman,Middle East & North Africa,OMR,Public,1.14,Muscat,Muscat,Oman,23.58413,58.40778
338,562,Mykolaiv,New,MKP Nikolaevvodokanal,Ukraine,Eastern Europe & Central Asia,UAH,Public,0.4,Mykolaiv,Lviv,Ukraine,49.52372,23.98522
339,293,Nador,,Office National de l'Electricité et de l'Eau Potable (ONEE),Morocco,Middle East & North Africa,MAD,Public,0.65,Nador,Oriental,Morocco,35.16813,-2.93352
340,196,Nagoya,,Nagoya City Waterworks & Sewerage Bureau,Japan,Asia Pacific,JPY,Public,0.96,Nagoya,Aichi,Japan,35.18147,136.90641
341,315,Nagpur,,Nagpur Municipal Corporation,India,South Asia,INR,Public,0.11,Nagpur,Maharashtra,India,21.14631,79.08491
342,37,Nairobi,,Nairobi City Water and Sewerage Company,Kenya,Sub-Saharan Africa,KES,Public,0.48,Nairobi,Nairobi Area,Kenya,-1.28333,36.81667
343,570,Nanchang,New,Nanchang Water Industry Group,China,Asia Pacific,CNY,Public,0.29,Nanchang,Jiangxi,China,28.68396,115.85306
344,316,Nanjing,,Nanjing Tap Water General Company,China,Asia Pacific,CNY,Public,0.23,Nanjing,Jiangsu,China,32.06167,118.77778
345,428,Nanning,,"Nanning Jianning Water Investment Group Co., Ltd",China,Asia Pacific,CNY,Private,0.22,Nanning,Guangxi,China,22.81667,108.31667
346,230,Nantes,,Nantes Metropole,France,Western Europe,EUR,Public,1.93,Nantes,Pays de la Loire,France,47.21725,-1.55336
347,201,Naples,,ABC Napoli,Italy,Western Europe,EUR,,1.06,Naples,Campania,Italy,40.85216,14.26811
348,317,Nashik,,Nashik Municipal Corporation,India,South Asia,INR,Public,0.07,Nashik,Maharashtra,India,19.99727,73.79096
349,341,Nashville,,Nashville Metro Water Services,United States,North America,USD,public,0.79,Nashville,Tennessee,United States,36.16589,-86.78444
350,257,Nassau,,"Water and Sewerage Corporation, Bahamas",Bahamas,Latin America & Caribbean,BSD,,3.74,Nassau,New Providence,Bahamas,25.05823,-77.34306
351,504,Ndjamena,,Société Tchadienne d'Eau et d'Electricité (STEE),Chad,Sub-Saharan Africa,XAF,,0.18,Ndjamena,Chari-Baguirmi,Chad,12.10672,15.0444
352,28,New Delhi,,Municipal Corporation of Delhi,India,South Asia,INR,Public,0.22,New Delhi,Delhi,India,28.63576,77.22445
353,342,New Orleans,,Sewerage and Water Board of New Orleans,United States,North America,USD,public,2.5,New Orleans,Louisiana,United States,29.95465,-90.07507
354,95,New York City,,New York City Water Board,United States,North America,USD,Public,1.41,New York City,New York,United States,40.71427,-74.00597
355,444,"Newark, DE",,City of Newark,United States,North America,USD,public,1.99,"Newark, DE",Delaware,United States,39.68372,-75.74966
356,343,"Newark, NJ",,City of Newark Water Department,United States,North America,USD,Public,1.22,"Newark, NJ",New Jersey,United States,40.73566,-74.17237
357,119,Newcastle,,Northumbrian Water,United Kingdom,Western Europe,GBP,Private,1.93,Newcastle,England,United Kingdom,54.97328,-1.61396
358,294,Niamey,,Société d'Exploitation des Eaux du Niger (SEEN),Niger,Sub-Saharan Africa,XOF,Private,0.38,Niamey,Niamey,Niger,13.51366,2.1098
359,229,Nice,,Métropole Nice Côte d'Azur,France,Western Europe,EUR,,1.96,Nice,Provence-Alpes-Côte d'Azur,France,43.70313,7.26608
360,395,Nicosia,,Water Board of Nicosia (water) / Sewerage Board of Nicosia (wastewater),Cyprus,Western Europe,EUR,Public,1.93,Nicosia,Nicosia,Cyprus,35.17531,33.3642
361,427,Ningbo,,Ningbo Water Supply Company Limited,China,Asia Pacific,CNY,Public,0.35,Ningbo,Zhejiang,China,29.87819,121.54945
362,552,Nizhny Novgorod,New,Nizhny Novgorod,Russia,Eastern Europe & Central Asia,RUB,Public,0.36,Nizhny Novgorod,Nizhny Novgorod Oblast,Russia,56.32867,44.00205
363,458,Northampton,,Anglian Water,United Kingdom,Western Europe,GBP,Private,2.24,Northampton,England,United Kingdom,52.25,-0.88333
364,67,Novosibirsk,,Vodokanal Novosibirsk,Russia,Eastern Europe & Central Asia,RUB,Public,0.29,Novosibirsk,Novosibirsk Oblast,Russia,55.0415,82.9346
365,560,Nuremberg,New,N-ergie,Germany,Western Europe,EUR,Private,3.01,Nuremberg,Bavaria,Germany,49.45421,11.07752
366,404,Nuuk,,Nukissiorfiit,Greenland,North America,DKK,Public,2.9,Nuuk,Sermersooq,Greenland,64.18347,-51.72157
367,588,Oakland,New,East Bay Municipal Utility District,United States,North America,USD,Public,3.13,Oakland,California,United States,37.80437,-122.2708
368,81,Odessa,,Odessavodokanal,Ukraine,Eastern Europe & Central Asia,UAH,Private,0.45,Odessa,Odesa,Ukraine,46.47747,30.73262
369,344,Oklahoma City,,Oklahoma City Utility Service Center,United States,North America,USD,public,1.9,Oklahoma City,Oklahoma,United States,35.46756,-97.51643
370,111,Omaha,,Municipal Utility District of Omaha,United States,North America,USD,Public,1.31,Omaha,Nebraska,United States,41.25626,-95.94043
371,64,Omsk,,JSC Omskvodokanal,Russia,Eastern Europe & Central Asia,RUB,Private,0.27,Omsk,Omsk,Russia,54.99244,73.36859
372,279,Oranjestad,,WEB Aruba,Aruba,Latin America & Caribbean,AWG,,3.67,Oranjestad,,Aruba,12.52398,-70.02703
373,549,Orenburg,New,Orenburg Vodokanal LLC,Russia,Eastern Europe & Central Asia,RUB,Public,0.44,Orenburg,Orenburg Oblast,Russia,51.7727,55.0988
374,197,Osaka,,Osaka City Waterworks Bureau,Japan,Asia Pacific,JPY,Public,0.96,Osaka,Ōsaka,Japan,34.69374,135.50218
375,156,Oslo,,VAV (Oslo Water and Sewerage Works),Norway,Western Europe,NOK,,3.02,Oslo,Oslo,Norway,59.91273,10.74609
376,239,Ostrava,,Ostravské vodárny a kanalizace a.s.,Czech Republic,Eastern Europe & Central Asia,CZK,Public,1.73,Ostrava,Moravskoslezský,Czech Republic,49.83465,18.28204
377,242,Ottawa,,City of Ottawa,Canada,North America,CAD,Public,1.47,Ottawa,Ontario,Canada,45.41117,-75.69812
378,295,Ouagadougou,,Office National de l'Eau et de l'Assainissement (ONEA),Burkina Faso,Sub-Saharan Africa,XOF,,0.67,Ouagadougou,Centre,Burkina Faso,12.36566,-1.53388
379,553,Oviedo,New,Aqualia Oviedo,Spain,Western Europe,EUR,Private,0.62,Oviedo,Asturias,Spain,43.36029,-5.84476
380,200,Palermo,,AMAP S.p.A,Italy,Western Europe,EUR,,1.28,Palermo,Sicily,Italy,38.13205,13.33561
381,51,Panama City,,IDAAN (Instituto de Acueductos y Alcantarillados Nacionales),Panama,Latin America & Caribbean,PAB,,0.85,Panama City,Panamá,Panama,8.9936,-79.51973
382,500,Paramribo,,Surinaamse Waterleiding Maatschappij,Suriname,Latin America & Caribbean,SRD,,0.28,Paramribo,Paramaribo,Suriname,5.86638,-55.16682
383,232,Paris,,Eaux de Paris,France,Western Europe,EUR,Public,2.15,Paris,Île-de-France,France,48.85341,2.3488
384,540,Perm,New,Limited Liability Company “Management Company“ Quality House Maintenance ”,Russia,Eastern Europe & Central Asia,RUB,,0.52,Perm,Perm,Russia,58.01046,56.25017
385,256,Perth,,Water Corporation of Western Australia,Australia,Asia Pacific,AUD,Public,2.36,Perth,Western Australia,Australia,-31.95224,115.8614
386,91,Philadelphia,,Philadelphia Water Dept,United States,North America,USD,Public,1.96,Philadelphia,Pennsylvania,United States,39.95233,-75.16379
387,318,Phnom Penh,,Phnom Penh Water Supply Authority,Cambodia,Asia Pacific,KHR,Public,0.15,Phnom Penh,Phnom Penh,Cambodia,11.56245,104.91601
388,110,Phoenix,,City of Phoenix Water Services Dept,United States,North America,USD,Public,1.32,Phoenix,Arizona,United States,33.44838,-112.07404
389,214,Piraeus,,EYDAP S.A. (Athens Water Supply and Sewerage Company),Greece,Western Europe,EUR,,0.79,Piraeus,Attica,Greece,37.94203,23.64619
390,345,Pittsburgh,,Pitttsburgh Water and Sewer Authority,United States,North America,USD,public,4.15,Pittsburgh,Pennsylvania,United States,40.44062,-79.99589
391,430,Podgorica,,"Vodovod , kanalizacija d.o.o. Podgorica",Montenegro,Eastern Europe & Central Asia,EUR,Public,0.49,Podgorica,Podgorica,Montenegro,42.44111,19.26361
392,489,Port Louis,,Central Water Authority (water) / Wastewater Management Authority (wastewater),Mauritius,Sub-Saharan Africa,MUR,,0.21,Port Louis,Port Louis,Mauritius,-20.16194,57.49889
393,378,Port Moresby,,NCD Water and Sewerage Ltd. (Eda Ranu),Papua New Guinea,Asia Pacific,PGK,Public,0.45,Port Moresby,National Capital,Papua New Guinea,-9.47723,147.15089
394,514,Port of Spain,,Water and Sewerage Authority (WASA),Trinidad and Tobago,Latin America & Caribbean,TTD,,0.26,Port of Spain,Port of Spain,Trinidad and Tobago,10.66668,-61.51889
395,463,"Portland, ME",,Portland Water District,United States,North America,USD,Private/Public,1.35,"Portland, ME",Maine,United States,43.66147,-70.25533
396,346,"Portland, OR",,Portland Water Bureau,United States,North America,USD,public,2.91,"Portland, OR",Oregon,United States,45.52345,-122.67621
397,148,Porto,,Aguas do Porto,Portugal,Western Europe,EUR,Public,1.3,Porto,Porto,Portugal,41.14961,-8.61099
398,502,Port-Vila,,UNELCO Engie,Vanuatu,Asia Pacific,VUV,,0.81,Port-Vila,Shefa,Vanuatu,-17.73648,168.31366
399,150,Poznan,,Aquanet,Poland,Eastern Europe & Central Asia,PLN,Private,1.36,Poznan,Greater Poland,Poland,52.40692,16.92993
400,238,Prague,,Prazské vodovody a kanalizace (PVK),Czech Republic,Eastern Europe & Central Asia,CZK,Private,2.16,Prague,Praha,Czech Republic,50.08804,14.42076
401,477,Praia,,ELECTRA,Cabo Verde,Sub-Saharan Africa,CVE,,4.31,Praia,Praia,Cabo Verde,14.93152,-23.51254
402,398,Pretoria,,The City of Tshwane Metropolitan Municipality,South Africa,Sub-Saharan Africa,ZAR,Public,1.23,Pretoria,Gauteng,South Africa,-25.74486,28.18783
403,446,Providence,,Providence Water (water) / Narragansett Bay Commission (wastewater),United States,North America,USD,Public,1.78,Providence,Rhode Island,United States,41.82399,-71.41283
404,167,Puebla,,Sistema Operador de los Servicios de Agua Potable y Alcantarillado del Municipio de Puebla (SOAPAP),Mexico,Latin America & Caribbean,MXN,Public,0.54,Puebla,Baja California,Mexico,32.56654,-115.3534
405,467,Pune,,Pune Municipal Corporation,India,South Asia,INR,Public,0.09,Pune,Maharashtra,India,18.51957,73.85535
406,517,Putrajaya,,PBAPP (water) / Indah Water (wastewater),Malaysia,Asia Pacific,MYR,Public,0.14,Putrajaya,Putrajaya,Malaysia,2.93527,101.69112
407,319,Qingdao,,"Qingdao Highrun Water Supply Group Co., Ltd",China,Asia Pacific,CNY,Public,0.4,Qingdao,Shandong,China,36.06488,120.38042
408,422,Quanzhou,,"Quanzhou City Water Supply Co., Ltd",China,Asia Pacific,CNY,Public,0.28,Quanzhou,Fujian,China,24.91389,118.58583
409,582,Quebec City,New,Ville de Quebec,Canada,North America,CAD,Public,2.34,Quebec City,Québec,Canada,46.81228,-71.21454
410,389,Quito,,EPMAPS,Ecuador,Latin America & Caribbean,USD,,0.48,Quito,Pichincha,Ecuador,-0.22985,-78.52495
411,45,Rabat,,Redal,Morocco,Middle East & North Africa,MAD,Private,0.89,Rabat,Rabat-Salé-Kénitra,Morocco,34.01325,-6.83255
412,320,Rajkot,,Rajkot Municipal Corporation,India,South Asia,INR,Public,0.07,Rajkot,Gujarat,India,22.29161,70.79322
413,576,Raleigh,New,Raleigh,United States,North America,USD,Public,1.62,Raleigh,North Carolina,United States,35.7721,-78.63861
414,50,Ramallah,,Jerusalem Water Undertaking (JWU),Palestine,Middle East & North Africa,ILS,,1.51,Ramallah,West Bank,Palestine,31.89964,35.20422
415,321,Ranchi,,Ranchi Municipal Corporation,India,South Asia,INR,Public,0.09,Ranchi,Jharkhand,India,23.34316,85.3094
416,448,Rawalpindi,,Water and Sanitation Agency,Pakistan,South Asia,PKR,Public,0.04,Rawalpindi,Punjab,Pakistan,33.59733,73.0479
417,322,Recife,,COMPESA,Brazil,Latin America & Caribbean,BRL,PPP,1.12,Recife,Pernambuco,Brazil,-8.05389,-34.88111
418,208,Reykjavik,,Reykjavik Energy,Iceland,Western Europe,ISK,,2.28,Reykjavik,Capital Region,Iceland,64.13548,-21.89541
419,86,Richmond,,City of Richmond Dept of Public Utilities,United States,North America,USD,Public,2.18,Richmond,Virginia,United States,37.55376,-77.46026
420,38,Riga,,Rigas Udens,Latvia,Eastern Europe & Central Asia,EUR,Public,1.16,Riga,Riga,Latvia,56.946,24.10589
421,259,Rio de Janeiro,,CEDAE,Brazil,Latin America & Caribbean,BRL,PPP,1.13,Rio de Janeiro,Rio de Janeiro,Brazil,-22.90642,-43.18223
422,69,Riyadh,,National Water Company,Saudi Arabia,Middle East & North Africa,SAR,Public,0.12,Riyadh,Ar Riyāḑ,Saudi Arabia,24.68773,46.72185
423,199,Rome,,ACEA ATO2 SpA,Italy,Western Europe,EUR,,0.78,Rome,Latium,Italy,41.89193,12.51133
424,432,Roseau,,"Dominica Water & Sewerage Co., Ltd. (DOWASCO)",Dominica,Latin America & Caribbean,XCD,Public,1.27,Roseau,Saint George,Dominica,15.30174,-61.38808
425,60,Rostov-on-Don,,JSC Vodokanal,Russia,Eastern Europe & Central Asia,RUB,Private,0.67,Rostov-on-Don,Rostov,Russia,47.23135,39.72328
426,161,Rotterdam,,Evides (water) / City of Rotterdam (wastewater),Netherlands,Western Europe,EUR,,2.7,Rotterdam,South Holland,Netherlands,51.9225,4.47917
427,551,Ryazan,New,Ryazan,Russia,Eastern Europe & Central Asia,RUB,public,0.52,Ryazan,Ryazan Oblast,Russia,54.6269,39.6916
428,586,Sacramento,New,City of Sacramento,United States,North America,USD,Public,2.9,Sacramento,California,United States,38.58157,-121.4944
429,452,Saint Helier,,Jersey Water,United Kingdom,Western Europe,GBP,Private,3.69,Saint Helier,St Helier,United Kingdom,49.18804,-2.10491
430,575,Saint Paul,New,Saint Paul,United States,North America,USD,Public,1.48,Saint Paul,Minnesota,United States,44.94441,-93.09327
431,454,Saint Peter Port,,Guernsey Water,United Kingdom,Western Europe,GBP,Private,1.65,Saint Peter Port,St Peter Port,United Kingdom,49.45981,-2.53527
432,184,Sakai,,Sakai Waterworks Bureau,Japan,Asia Pacific,JPY,Public,1.12,Sakai,Ōsaka,Japan,34.58333,135.46667
433,578,Salem,New,City of Salem,United States,North America,USD,Public,1.58,Salem,Oregon,United States,44.9429,-123.0351
434,347,Salt Lake City,,Salt Lake City Department of Public Utilities,United States,North America,USD,public,1.2,Salt Lake City,Utah,United States,40.76078,-111.89105
435,352,Salvador de Bahia,,EMBASA,Brazil,Latin America & Caribbean,BRL,PPP,1.32,Salvador de Bahia,Bahia,Brazil,-12.97111,-38.51083
436,65,Samara,,Samara Vodokanal,Russia,Eastern Europe & Central Asia,RUB,Public,0.49,Samara,Samara Oblast,Russia,53.20007,50.15
437,108,San Antonio,,San Antonio Water System,United States,North America,USD,Public,1.52,San Antonio,Texas,United States,29.42412,-98.49363
438,87,San Diego,,City of San Diego Public Utilities Department,United States,North America,USD,Public,3.45,San Diego,California,United States,32.71571,-117.16472
439,89,San Francisco,,San Fransisco Public Utilities Comission,United States,North America,USD,Public,3.81,San Francisco,California,United States,37.77493,-122.41942
440,390,San Jose,,Instituto Costarricense de Acueductos y Alcantarillados,Costa Rica,Latin America & Caribbean,CRC,,0.86,San Jose,San José,Costa Rica,9.93333,-84.08333
441,90,"San Jose, CA",,San Jose Municipal Water System,United States,North America,USD,Public,3.6,"San Jose, CA",California,United States,37.33939,-121.89496
442,436,San Pedro,,Belize Water Services,Belize,Latin America & Caribbean,BZD,Public,4.06,San Pedro,Belize,Belize,17.91598,-87.9659
443,359,San Salvador,,Administración Nacional de Acueductos y Alcantarillados (ANDA),El Salvador,Latin America & Caribbean,USD,Public,0.22,San Salvador,San Salvador,El Salvador,13.68935,-89.18718
444,354,Santa Fe,,Aguas Santafesinas SA (ASSA),Argentina,Latin America & Caribbean,ARS,Public,0.28,Santa Fe,Santa Fe,Argentina,-31.64881,-60.70868
445,11,Santiago-de-Chile,,Aguas Andinas,Chile,Latin America & Caribbean,CLP,,0.59,Santiago-de-Chile,Santiago Metropolitan,Chile,-33.45694,-70.64827
446,374,Santo Domingo,,Corporación de Acueductos y Alcantarillados de Santo Domingo (CAASD),Dominican Republic,Latin America & Caribbean,DOP,Public,0.17,Santo Domingo,Nacional,Dominican Republic,18.47186,-69.89232
447,9,São Paulo,,SABESP,Brazil,Latin America & Caribbean,BRL,PPP,0.81,São Paulo,São Paulo,Brazil,-23.5475,-46.63611
448,189,Sapporo,,Sapporo City Water Dept,Japan,Asia Pacific,JPY,Public,1.55,Sapporo,Hokkaido,Japan,43.06667,141.35
449,366,Sarajevo,,Vodovod i kanalizacija d.o.o. Sarajevo,Bosnia and Herzegovina,Eastern Europe & Central Asia,BAM,Public,0.65,Sarajevo,Federation of B&H,Bosnia and Herzegovina,43.84864,18.35644
450,62,Saratov,,Saratov Vodokanal,Russia,Eastern Europe & Central Asia,RUB,Public,0.39,Saratov,Saratovskaya Oblast,Russia,51.54056,46.00861
451,348,Seattle,,Seattle Public Utilities,United States,North America,USD,public,3.08,Seattle,Washington,United States,47.60621,-122.33207
452,351,Sebastopol,,Sevastopol Vodokanal,Ukraine,Eastern Europe & Central Asia,RUB,Public,0.61,Sebastopol,City of Sebastopol,Ukraine,44.58883,33.5224
453,188,Sendai,,Sendai City Waterworks Bureau,Japan,Asia Pacific,JPY,Public,1.54,Sendai,Miyagi,Japan,38.26667,140.86667
454,182,Seoul,,Arisu,South Korea,Asia Pacific,KRW,Public,0.51,Seoul,Seoul,South Korea,37.566,126.9784
455,408,Seremban,,SainsWater,Malaysia,Asia Pacific,MYR,Public,0.13,Seremban,Negeri Sembilan,Malaysia,2.7297,101.9381
456,140,Seville,,EMASESA,Spain,Western Europe,EUR,Public,1.32,Seville,Andalusia,Spain,37.38283,-5.97317
457,409,Shah Alam,,Syarikat Bekalan Air Selangor Sdn Bhd,Malaysia,Asia Pacific,MYR,Public,0.14,Shah Alam,Selangor,Malaysia,3.08507,101.53281
458,18,Shanghai,,Shanghai Water Supply Company,China,Asia Pacific,CNY,PPP,0.28,Shanghai,Shanghai,China,31.22222,121.45806
459,423,Shantou,,Shantou City Water Supply Corporation,China,Asia Pacific,CNY,Public,0.27,Shantou,Guangdong,China,23.36814,116.71479
460,323,Shenyang,,Shenyang Shuiwu Group,China,Asia Pacific,CNY,Public,0.34,Shenyang,Liaoning,China,41.79222,123.43278
461,260,Shenzhen,,Shenzhen Water Supply Company,China,Asia Pacific,CNY,PPP,0.39,Shenzhen,Guangdong,China,22.54554,114.0683
462,324,Shijiazhuang,,Shijiazhuang Water Supply Company,China,Asia Pacific,CNY,Public,0.63,Shijiazhuang,Hebei,China,38.04139,114.47861
463,272,Singapore,,Singapore PUB,Singapore,Asia Pacific,SGD,,1.43,Singapore,Central Singapore,Singapore,1.28967,103.85007
464,460,Sioux Falls,,City of Sioux Falls,United States,North America,USD,Public,1.54,Sioux Falls,South Dakota,United States,43.54997,-96.70033
465,403,Skopje,,Skopje Vodovod,North Macedonia,Eastern Europe & Central Asia,MKD,Public,0.35,Skopje,Karpoš,North Macedonia,41.99646,21.43141
466,10,Sofia,,Sofiyska Voda,Bulgaria,Eastern Europe & Central Asia,BGN,Private,0.95,Sofia,Sofia-Capital,Bulgaria,42.69751,23.32415
467,429,Sopot,,Saur Neptun Gdansk S. A.,Poland,Eastern Europe & Central Asia,PLN,Private,0.89,Sopot,Pomerania,Poland,54.4418,18.56003
468,485,South Tarawa,,Public Utilities Board,Kiribati,Asia Pacific,AUD,,5.49,South Tarawa,Gilbert Islands,Kiribati,1.3278,172.97696
469,453,Southampton,,Southern Water,United Kingdom,Western Europe,GBP,Private,1.9,Southampton,England,United Kingdom,50.90395,-1.40428
470,481,St. George's,,National Water & Sewerage Authority,Grenada,Latin America & Caribbean,XCD,,1.21,St. George's,Saint George,Grenada,12.05288,-61.75226
471,474,St. John's,,Antigua Public Utilities Authority (APUA),Antigua and Barbuda,Latin America & Caribbean,XCD,,2.08,St. John's,Saint John,Antigua and Barbuda,17.12096,-61.84329
472,349,St. Louis,,City of St. Loius Water Division,United States,North America,USD,public,1.15,St. Louis,Missouri,United States,38.62727,-90.19789
473,61,St. Petersburg,,St. Petersburg Vodokanal,Russia,Eastern Europe & Central Asia,RUB,Public,0.49,St. Petersburg,St.-Petersburg,Russia,59.93863,30.31413
474,536,St. Thomas,,Virgin Island Water and Power Authority,U.S. Virgin Islands,Latin America & Caribbean,USD,Public,7.26,St. Thomas,Saint Thomas Island,U.S. Virgin Islands,18.3419,-64.9307
475,137,Stockholm,,Stockholm Vatten,Sweden,Western Europe,SEK,,2.12,Stockholm,Stockholm,Sweden,59.33258,18.0649
476,231,Strasbourg,,Eurométropole de Strasbourg,France,Western Europe,EUR,Public,2.01,Strasbourg,Grand Est,France,48.58392,7.74553
477,216,Stuttgart,,Stuttgart Water Dept,Germany,Western Europe,EUR,,3.4,Stuttgart,Baden-Württemberg,Germany,48.78232,9.17702
478,382,Surabaya,,PDAM Surya Sembada Surabaya,Indonesia,Asia Pacific,IDR,Public,0.1,Surabaya,East Java,Indonesia,-7.24917,112.75083
479,479,Suva,,Water Authority of fiji,Fiji,Asia Pacific,FJD,,0.07,Suva,Central,Fiji,-18.14161,178.44149
480,415,Suzhou,,Suzhou City Water Company,China,Asia Pacific,CNY,Public,0.3,Suzhou,Jiangsu,China,31.30408,120.59538
481,253,Sydney,,Sydney Water,Australia,Asia Pacific,AUD,Public,1.84,Sydney,New South Wales,Australia,-33.86785,151.20732
482,75,Taipei,,Taipei Water Department,Taiwan,Asia Pacific,TWD,Public,0.21,Taipei,Taiwan,Taiwan,25.04776,121.53185
483,325,Taiyuan,,Taiyuan Tap Water Company,China,Asia Pacific,CNY,Public,0.5,Taiyuan,Shanxi,China,37.86944,112.56028
484,22,Tallinn,,AS Tallinna Vesi,Estonia,Eastern Europe & Central Asia,EUR,Private,1.29,Tallinn,Harjumaa,Estonia,59.43696,24.75353
485,574,Tampa,New,City of Tampa,United States,North America,USD,Public,0.84,Tampa,Florida,United States,27.94752,-82.45843
486,82,Tashkent,,Tashkent Vodokanal,Uzbekistan,Eastern Europe & Central Asia,UZS,Public,0.04,Tashkent,Toshkent Shahri,Uzbekistan,41.26465,69.21627
487,24,Tbilisi,,Georgian Water & Power Company,Georgia,Eastern Europe & Central Asia,GEL,Private,0.09,Tbilisi,T'bilisi,Georgia,41.69411,44.83368
488,25,Tegucigalpa,,SANAA (Servicio Autonomo Nacional de Acueductos y Alcantarillados),Honduras,Latin America & Caribbean,HNL,,0.09,Tegucigalpa,Francisco Morazán,Honduras,14.0818,-87.20681
489,31,Tehran,,Tehran Province Water and Wastewater Co,Iran,Middle East & North Africa,IRR,Public,0.09,Tehran,Tehrān,Iran,35.69439,51.42151
490,34,Tel Aviv,,Mei-Avivim,Israel,Middle East & North Africa,ILS,,2.08,Tel Aviv,Tel Aviv,Israel,32.08088,34.78057
491,466,Thane,,Thane Municipal Corporation,India,South Asia,INR,Public,0.17,Thane,Maharashtra,India,19.19704,72.96355
492,162,The Hague,,Duinwaterbedrijf Zuid-Holland,Netherlands,Western Europe,EUR,,3.0,The Hague,South Holland,Netherlands,52.07667,4.29861
493,437,The Valley,,Water Corporation of Anguilla,Anguilla (UK),Latin America & Caribbean,XCD,Public,4.54,The Valley,The Valley,Anguilla (UK),18.21704,-63.05783
494,212,Thessaloniki,,EYATH S.A.,Greece,Western Europe,EUR,,1.04,Thessaloniki,Central Macedonia,Greece,40.64361,22.93086
495,14,Tianjin,,Tianjin Water Supply Company,China,Asia Pacific,CNY,Public,0.57,Tianjin,Tianjin,China,39.14222,117.17667
496,173,Tijuana,,Comisión Estatal de Servicios Públicos de Tijuana (CESPT),Mexico,Latin America & Caribbean,MXN,Public,0.99,Tijuana,Baja California,Mexico,32.5027,-117.00371
497,372,Tirana,,Ujësjellës - Kanalizimeve Tiranë,Albania,Eastern Europe & Central Asia,ALL,Public,0.87,Tirana,Tirana,Albania,41.3275,19.81889
498,192,Tokyo,,Bureau of Waterworks Tokyo,Japan,Asia Pacific,JPY,Public,1.07,Tokyo,Tokyo,Japan,35.6895,139.69171
499,548,Tomsk,New,Tomsk Vodokanal,Russia,Eastern Europe & Central Asia,RUB,Public,0.73,Tomsk,Tomsk Oblast,Russia,56.49771,84.97437
500,407,Topeka,,City of Topeka,United States,North America,USD,Public,2.06,Topeka,Kansas,United States,39.04833,-95.67804
501,243,Toronto,,City of Toronto,Canada,North America,CAD,Public,2.98,Toronto,Ontario,Canada,43.70011,-79.4163
502,537,Tortola,,The Caribbean Water and Sewerage Associstion Inc,British Virgin Islands,Latin America & Caribbean,USD,,3.36,Tortola,Tortola,British Virgin Islands,18.42693,-64.62079
503,226,Toulouse,,Véolia Eau - Compagnie Générale Des Eaux à Toulouse,France,Western Europe,EUR,Private,1.94,Toulouse,Occitanie,France,43.60426,1.44367
504,157,Trondheim,,Trondheim Kommune,Norway,Western Europe,NOK,,1.95,Trondheim,Trøndelag,Norway,63.43049,10.39506
505,350,Tucson,,Tucson Water (water) / Pima County Regional Wastewater Reclamation Department (wastewater),United States,North America,USD,public,2.14,Tucson,Arizona,United States,32.22174,-110.92648
506,589,Tulsa,New,City of Tulsa,United States,North America,USD,Public,1.55,Tulsa,Oklahoma,United States,36.15398,-95.99277
507,280,Tunis,,SONEDE (water) / ONAS (wastewater),Tunisia,Middle East & North Africa,TND,Public,0.25,Tunis,Tūnis,Tunisia,36.81897,10.16579
508,205,Turin,New,Societa Metropolitana Acque Torino,Italy,Western Europe,EUR,Private,0.9,Turin,Piedmont,Italy,45.07049,7.68682
509,545,Tyumen,New,Tyumen Vodkanal,Russia,Eastern Europe & Central Asia,RUB,Public,0.56,Tyumen,Tyumen’ Oblast,Russia,57.15222,65.52722
510,66,Ufa,,Ufa Water Company,Russia,Eastern Europe & Central Asia,RUB,Public,0.4,Ufa,Bashkortostan Republic,Russia,54.74306,55.96779
511,43,Ulaanbaatar,,Ulan Bator Water Supply and Sewerage Authority (USUG),Mongolia,Asia Pacific,MNT,Public,0.41,Ulaanbaatar,Ulaanbaatar,Mongolia,47.90771,106.88324
512,177,Ulsan,,Ulsan Metropolitan City Waterworks,South Korea,Asia Pacific,KRW,Public,0.65,Ulsan,Ulsan,South Korea,35.53722,129.31667
513,163,Utrecht,,Vitens (water) / City of Utrecht (wastewater),Netherlands,Western Europe,EUR,,1.98,Utrecht,Utrecht,Netherlands,52.09083,5.12222
514,486,Vaduz,,Vaduz Municipal Waterworks,Liechtenstein,Western Europe,CHF,,1.25,Vaduz,Vaduz,Liechtenstein,47.14151,9.52154
515,455,Valencia,,EMIVASA,Spain,Western Europe,EUR,PPP,1.45,Valencia,Valencia,Spain,39.46975,-0.37739
516,515,Valletta,,"Water Services Corporation, Malta",Malta,Western Europe,EUR,,5.56,Valletta,Il-Belt Valletta,Malta,35.89972,14.51472
517,244,Vancouver,,City of Vancouver Engineering Services,Canada,North America,CAD,Public,1.59,Vancouver,British Columbia,Canada,49.24966,-123.11934
518,202,Venice,,Gruppo Veritas (water) / Comune di Venezia (wastewater),Italy,Western Europe,EUR,Public,0.56,Venice,Veneto,Italy,45.43713,12.33265
519,495,Victoria,,Public Utilities Corporation,Seychelles,Sub-Saharan Africa,SCR,,1.01,Victoria,Labuan,Malaysia,5.27667,115.24167
520,518,Victoria,,PBAPP (water) / Indah Water (wastewater),Malaysia,Asia Pacific,MYR,Public,0.17,Victoria,Labuan,Malaysia,5.27667,115.24167
521,251,Vienna,,Wiener Wasser,Austria,Western Europe,EUR,,2.33,Vienna,Vienna,Austria,48.20849,16.37208
522,512,Vientiane,,Vientiane Water Supply Enterprise (Nampapa Nakhon Luang),Laos,Asia Pacific,LAK,,0.24,Vientiane,Vientiane Prefecture,Laos,17.96667,102.6
523,556,Vigo,New,Aqualia Vigo,Spain,Western Europe,EUR,Private,0.82,Vigo,Galicia,Spain,42.23282,-8.72264
524,39,Vilnius,,Vilniaus Vandenys,Lithuania,Eastern Europe & Central Asia,EUR,Public,0.77,Vilnius,Vilnius,Lithuania,54.68916,25.2798
525,580,Virginia Beach,New,City of Virginia Beach,United States,North America,USD,Public,1.59,Virginia Beach,Virginia,United States,36.85293,-75.97799
526,281,Vladivostok,,Primorski Vodokanal,Russia,Eastern Europe & Central Asia,RUB,Public,0.49,Vladivostok,Primorskiy (Maritime) Kray,Russia,43.10562,131.87353
527,59,Volgograd,,Volgograd Water Company,Russia,Eastern Europe & Central Asia,RUB,Public,0.36,Volgograd,Volgograd Oblast,Russia,48.71939,44.50183
528,282,Voronezh,,RVK Voronezh,Russia,Eastern Europe & Central Asia,RUB,Public,0.4,Voronezh,Voronezj,Russia,51.67204,39.1843
529,153,Warsaw,,MPWiK,Poland,Eastern Europe & Central Asia,PLN,Public,1.15,Warsaw,Mazovia,Poland,52.22977,21.01178
530,100,Washington DC,,DC Water and Sewer Authority,United States,North America,USD,Public,2.1,Washington DC,"Washington, D.C.",United States,38.89511,-77.03637
531,490,Weno,,Chuuk Public Utilities,Micronesia,Asia Pacific,USD,,0.93,Weno,Chuuk,Micronesia,7.44648,151.84135
532,421,Wenzhou,,Wenzhou Public Utilities Investment Group-Tap Water Subsidiary,China,Asia Pacific,CNY,Public,0.35,Wenzhou,Zhejiang,China,27.99942,120.66682
533,464,Wichita,,City of Wichita,United States,North America,USD,public,0.87,Wichita,Kansas,United States,37.69224,-97.33754
534,473,Wilmington,,City of Wilmington,United States,North America,USD,,2.1,Wilmington,Delaware,United States,39.74595,-75.54659
535,283,Windhoek,,City of Windhoek,Namibia,Sub-Saharan Africa,NAD,Public,2.15,Windhoek,Khomas,Namibia,-22.55941,17.08323
536,581,Winnipeg,New,Winnipeg,Canada,North America,CAD,Public,2.22,Winnipeg,Manitoba,Canada,49.8844,-97.14704
537,154,Wroclaw,,Rada Miejska Wrocławia,Poland,Eastern Europe & Central Asia,PLN,Public,1.51,Wroclaw,Lower Silesia,Poland,51.1,17.03333
538,262,Wuhan,,Wuhan Water Supply Company,China,Asia Pacific,CNY,Public,0.2,Wuhan,Hubei,China,30.58333,114.26667
539,425,Wuxi,,"Wuxi City Water Supply Co., Ltd. 无锡市自来水有限公司",China,Asia Pacific,CNY,Public,0.37,Wuxi,Jiangsu,China,31.56887,120.28857
540,426,Xiamen,,Xiamen Water,China,Asia Pacific,CNY,Public,0.32,Xiamen,Fujian,China,24.47979,118.08187
541,326,Xi'an,,Xi'an Water Supply Company,China,Asia Pacific,CNY,Public,0.43,Xi'an,Shaanxi,China,34.25833,108.92861
542,571,Xining,New,Xining Water,China,Asia Pacific,CNY,Public,0.26,Xining,Qinghai,China,36.62554,101.75739
543,406,Yangon,,Yangon City Development Committee,Myanmar,Asia Pacific,MMK,Public,0.34,Yangon,Rangoon,Myanmar,16.80528,96.15611
544,491,Yaren,,Nauru Utilities Corporations,Nauru,Asia Pacific,AUD,Public,5.83,Yaren,Yaren,Nauru,-0.55085,166.9252
545,57,Yekaterinburg,,MUP Vodokanal Yekaterinbourg,Russia,Eastern Europe & Central Asia,RUB,Public,0.56,Yekaterinburg,Sverdlovsk,Russia,56.8519,60.6122
546,4,Yerevan,,Yerevan Water CJSC,Armenia,Eastern Europe & Central Asia,AMD,Private,0.32,Yerevan,Yerevan,Armenia,40.18111,44.51361
547,572,Yinchuan,New,Yinchuan Zhong Tie Water Group,China,Asia Pacific,CNY,Public,0.4,Yinchuan,Ningxia Hui Autonomous Region,China,38.46806,106.27306
548,191,Yokohama,,Yokohama Water works Bureau,Japan,Asia Pacific,JPY,Public,1.11,Yokohama,Kanagawa,Japan,35.43333,139.65
549,263,Zagreb,,Zagrebački holding,Croatia,Eastern Europe & Central Asia,HRK,Public,1.46,Zagreb,City of Zagreb,Croatia,45.81444,15.97798
550,456,Zaragoza,,Ayuntamiento de Zaragoza,Spain,Western Europe,EUR,Public,0.67,Zaragoza,Aragon,Spain,41.65606,-0.87734
551,327,Zhengzhou,,Zhengzhou Water Supply Corporation,China,Asia Pacific,CNY,Public,0.5,Zhengzhou,Henan,China,34.75778,113.64861
552,328,Zibo,,Zibo Water supply Company,China,Asia Pacific,CNY,Public,0.35,Zibo,Shandong,China,36.79056,118.06333
553,132,Zurich,,Stadt Zürich Wasserversorgung (water) / ERZ Entsorgung + Recycling Zürich (wastewater),Switzerland,Western Europe,CHF,,1.98,Zurich,Zurich,Switzerland,47.36667,8.55
554,193,Kitakyushu City,New,Kitakyushu City Water and Sewer Bureau,Japan,Asia Pacific,JPY,Private,1.24,,,,0.0,0.0
555,531,Mazar-i-Sharif,,Afghanistan Urban Water Supply and Sewerage Corporation,Afghanistan,South Asia,AFN,,0.4,,,,0.0,0.0
556,138,Palma,New,EMAYA,Spain,Western Europe,EUR,Private,1.74,,,,0.0,0.0
557,434,West Bay,,Cayman Water (water) / Water Authority - Cayman (wastewater),Cayman Islands (UK),Latin America & Caribbean,KYD,Private/Public,4.58,,,,0.0,0.0
